{"type":"Feature","properties":{"MUN":"WALL TWP","COUNTY":"MONMOUTH","MUN_LABEL":"Wall Township","MUN_TYPE":"Township","NAME":"Wall Township","GNIS_NAME":"Township of Wall","partNames":["Wall Township N","Wall Township S"]},"geometry":{"type":"MultiPolygon","coordinates":[[[[-74.0521511,40.1492968],[-74.1413788,40.1663531],[-74.1410345,40.1800534],[-74.1392714,40.2510795],[-74.1250471,40.2495724],[-74.1250247,40.2495131],[-74.1244732,40.2489803],[-74.1243778,40.2486826],[-74.1244957,40.2477445],[-74.1243415,40.2475499],[-74.1241548,40.2473238],[-74.1241738,40.2468291],[-74.1242992,40.2463348],[-74.1243334,40.2460593],[-74.1244324,40.2458906],[-74.124597,40.2456844],[-74.1246802,40.2454091],[-74.1246571,40.2451648],[-74.1247892,40.2449147],[-74.1247743,40.2446517],[-74.1247179,40.2445012],[-74.1245964,40.2443129],[-74.1243604,40.2441305],[-74.1241162,40.2439418],[-74.1240107,40.2438162],[-74.1238489,40.2435151],[-74.1236617,40.2433767],[-74.1235233,40.2432823],[-74.1233773,40.2430877],[-74.1232317,40.2428117],[-74.1231105,40.2425608],[-74.1230874,40.2422976],[-74.1230403,40.241953],[-74.1230987,40.2417403],[-74.1232555,40.241459],[-74.1234693,40.241228],[-74.1235442,40.240984],[-74.1236023,40.2408213],[-74.1238245,40.2405465],[-74.1239483,40.2403214],[-74.1239821,40.2401274],[-74.1240647,40.2399586],[-74.1241967,40.2397335],[-74.1242387,40.2395333],[-74.1244971,40.2386072],[-74.1244989,40.2382816],[-74.1243957,40.2377489],[-74.1242926,40.2371724],[-74.1242226,40.2365396],[-74.1240216,40.235944],[-74.123804,40.2353797],[-74.1236371,40.2345337],[-74.1234366,40.2338504],[-74.1234378,40.2336437],[-74.1236542,40.2329242],[-74.1237063,40.232367],[-74.1239231,40.2315848],[-74.1240166,40.2309338],[-74.1240926,40.2304894],[-74.1240606,40.2303578],[-74.1241595,40.2302141],[-74.1242098,40.2299762],[-74.1242104,40.2298635],[-74.1242762,40.2297886],[-74.124318,40.2296259],[-74.1242697,40.2294942],[-74.1243029,40.2294004],[-74.1244266,40.2291941],[-74.124427,40.229119],[-74.1244029,40.2290375],[-74.1243545,40.2289246],[-74.1243962,40.2287744],[-74.1244216,40.2286179],[-74.124422,40.2285365],[-74.1244541,40.2284102],[-74.1244863,40.228382],[-74.1245259,40.2283433],[-74.1245451,40.2283255],[-74.1245874,40.2282885],[-74.1246093,40.2282709],[-74.1246221,40.2282586],[-74.1246406,40.2282427],[-74.1246672,40.2282305],[-74.1246891,40.2282208],[-74.1247146,40.2282067],[-74.1247267,40.2281979],[-74.1247488,40.2281707],[-74.1247754,40.2281434],[-74.1247939,40.2281275],[-74.1248298,40.2281047],[-74.1248587,40.2280853],[-74.1248865,40.2280686],[-74.1249107,40.2280572],[-74.1249257,40.2280502],[-74.1249834,40.2280354],[-74.1250015,40.2280331],[-74.1250318,40.2280318],[-74.1250617,40.2280326],[-74.1251523,40.228038],[-74.1252331,40.2280445],[-74.1252734,40.2280508],[-74.1253017,40.2280509],[-74.1253421,40.2280448],[-74.1253826,40.2280295],[-74.1254311,40.2280203],[-74.1254958,40.2280113],[-74.1255604,40.2280084],[-74.1256492,40.2280148],[-74.1257057,40.2280212],[-74.1257662,40.2280431],[-74.1258106,40.2280494],[-74.125859,40.2280558],[-74.1259115,40.2280559],[-74.1259702,40.2280497],[-74.1260374,40.2280365],[-74.1260743,40.2280212],[-74.1261259,40.2279947],[-74.1261745,40.2279639],[-74.1261864,40.2279506],[-74.1261902,40.2279401],[-74.1261929,40.2279299],[-74.1261851,40.2278835],[-74.1261611,40.227837],[-74.1261209,40.2277997],[-74.1261049,40.2277656],[-74.1260931,40.227716],[-74.1260975,40.2276417],[-74.1261023,40.2275179],[-74.1261025,40.2274684],[-74.1260987,40.2274312],[-74.1260748,40.2273662],[-74.1260428,40.2273134],[-74.1259987,40.2272576],[-74.1259707,40.2271925],[-74.1259549,40.2271491],[-74.1259437,40.2270965],[-74.125943,40.2270933],[-74.1259417,40.2269726],[-74.1259424,40.2268364],[-74.1259311,40.226697],[-74.1259266,40.2266401],[-74.1259235,40.2266011],[-74.1259056,40.2265546],[-74.1258614,40.2265142],[-74.1257849,40.2264706],[-74.1257284,40.2264342],[-74.1257077,40.2264233],[-74.1256953,40.2264175],[-74.1256829,40.2264054],[-74.1256763,40.226392],[-74.1256756,40.2263793],[-74.1256682,40.2263659],[-74.1256566,40.2263538],[-74.1256426,40.2263455],[-74.1256218,40.2263403],[-74.1255903,40.2263358],[-74.1255658,40.2263363],[-74.1255327,40.226341],[-74.1255193,40.2263406],[-74.1255028,40.2263387],[-74.1254829,40.2263303],[-74.1253857,40.22626],[-74.1253386,40.2262274],[-74.1252923,40.2261974],[-74.1252418,40.2261673],[-74.1251781,40.2261366],[-74.1251325,40.2261186],[-74.1250658,40.2260968],[-74.125036,40.2260922],[-74.1250015,40.2260901],[-74.1249998,40.2260901],[-74.1249816,40.2260962],[-74.1249594,40.2260993],[-74.1249473,40.2261008],[-74.1249231,40.226113],[-74.1249089,40.2261192],[-74.1248968,40.2261222],[-74.1248787,40.2261191],[-74.1248606,40.2261067],[-74.1248365,40.2260942],[-74.1248084,40.2260771],[-74.1247903,40.2260586],[-74.1247823,40.2260462],[-74.1247751,40.2260369],[-74.1247621,40.226018],[-74.1247572,40.2260142],[-74.1247359,40.2260091],[-74.1247229,40.2260091],[-74.1246951,40.226004],[-74.1246787,40.2259989],[-74.1246603,40.2259944],[-74.1246424,40.2259837],[-74.1246269,40.2259749],[-74.1246072,40.2259591],[-74.1245968,40.2259503],[-74.1245317,40.2259004],[-74.1245109,40.2258828],[-74.1244956,40.2258688],[-74.1244914,40.2258662],[-74.1244614,40.2258497],[-74.1244471,40.2258431],[-74.124431,40.2258357],[-74.1244246,40.225834],[-74.1244154,40.2258316],[-74.1244005,40.2258291],[-74.1243805,40.2258275],[-74.1243633,40.225826],[-74.1243357,40.2258223],[-74.12433,40.2258213],[-74.1243242,40.22582],[-74.1243203,40.2258189],[-74.1243166,40.2258171],[-74.1242948,40.2258031],[-74.1242596,40.2257869],[-74.1242318,40.2257836],[-74.1242267,40.2257851],[-74.1242209,40.2257859],[-74.1242152,40.2257857],[-74.1242113,40.2257853],[-74.1242068,40.2257835],[-74.1242006,40.2257798],[-74.1241937,40.2257741],[-74.1241582,40.225753],[-74.1241363,40.225739],[-74.1241154,40.2257243],[-74.1240888,40.2257067],[-74.1240603,40.2256854],[-74.1240291,40.2256605],[-74.1239879,40.2256248],[-74.1239626,40.2255984],[-74.1239236,40.225564],[-74.1239091,40.225558],[-74.1238986,40.2255575],[-74.1238604,40.225549],[-74.1238479,40.2255453],[-74.1238354,40.2255393],[-74.1238224,40.2255319],[-74.1238182,40.2255289],[-74.1238119,40.2255244],[-74.1238022,40.2255155],[-74.1237946,40.2255059],[-74.1237908,40.2254963],[-74.1237898,40.2254896],[-74.1237918,40.225483],[-74.1238054,40.2254741],[-74.1238146,40.2254675],[-74.1238194,40.2254601],[-74.1238238,40.2254503],[-74.1238258,40.2254409],[-74.1238239,40.2254298],[-74.1238212,40.2254225],[-74.1238045,40.2254032],[-74.1237767,40.2253817],[-74.1237336,40.2253537],[-74.123713,40.2253378],[-74.1237006,40.2253259],[-74.1236967,40.225317],[-74.1236976,40.2253066],[-74.1237007,40.2252963],[-74.1237061,40.2252895],[-74.1237173,40.2252767],[-74.1237244,40.2252617],[-74.1237272,40.2252489],[-74.1237302,40.2252233],[-74.1237277,40.2251698],[-74.1237223,40.2251398],[-74.1237154,40.2251098],[-74.1237138,40.2251018],[-74.1237139,40.2250952],[-74.1237168,40.2250878],[-74.1237226,40.2250841],[-74.1237435,40.2250735],[-74.1237687,40.2250651],[-74.1237827,40.2250565],[-74.1238024,40.2250395],[-74.1238305,40.2249968],[-74.1238389,40.2249883],[-74.123851,40.224981],[-74.1238607,40.2249773],[-74.1238675,40.2249766],[-74.1238786,40.2249771],[-74.1238882,40.2249789],[-74.1238978,40.2249819],[-74.12397,40.2250037],[-74.1239951,40.2250123],[-74.1240045,40.2250147],[-74.1240168,40.2250155],[-74.1240314,40.2250146],[-74.1240509,40.2250125],[-74.1241305,40.2249999],[-74.1241655,40.224999],[-74.1241919,40.2250001],[-74.1242533,40.2250046],[-74.1243063,40.2250048],[-74.1243482,40.2250028],[-74.1243774,40.2249964],[-74.1244041,40.224988],[-74.1244796,40.2249604],[-74.1245272,40.2249413],[-74.1245831,40.2249158],[-74.1245911,40.2249114],[-74.1245986,40.2249076],[-74.1246256,40.2248839],[-74.1246476,40.2248604],[-74.1246989,40.2248017],[-74.1247255,40.2247751],[-74.1247424,40.2247548],[-74.1247564,40.2247409],[-74.1247838,40.2247132],[-74.1248273,40.2246652],[-74.1248708,40.2246226],[-74.1248918,40.2246013],[-74.1249101,40.2245864],[-74.1249276,40.2245757],[-74.1249545,40.2245634],[-74.1249595,40.2245607],[-74.1249627,40.2245569],[-74.1249645,40.2245515],[-74.1249628,40.224546],[-74.1249585,40.2245416],[-74.1249427,40.2245279],[-74.1249335,40.2245195],[-74.124926,40.2245118],[-74.1249139,40.2244976],[-74.1249039,40.224486],[-74.1248956,40.2244763],[-74.1248851,40.2244627],[-74.1248756,40.2244466],[-74.1248731,40.2244318],[-74.1248765,40.2244196],[-74.1248833,40.2244112],[-74.1249035,40.2244016],[-74.1249288,40.2243914],[-74.1249574,40.2243812],[-74.1250015,40.2243653],[-74.125018,40.2243593],[-74.1250291,40.2243573],[-74.1250384,40.2243574],[-74.125057,40.2243602],[-74.1250678,40.2243658],[-74.1250836,40.224375],[-74.1251119,40.2243853],[-74.125131,40.2243903],[-74.1251466,40.2243919],[-74.1251587,40.2243904],[-74.1251904,40.2243814],[-74.1252221,40.2243694],[-74.1252479,40.2243527],[-74.1252698,40.2243331],[-74.1252897,40.2243029],[-74.1252997,40.2242786],[-74.1252959,40.2242574],[-74.1252861,40.2242422],[-74.1252644,40.2242254],[-74.1252507,40.2242087],[-74.1252448,40.2241875],[-74.1252439,40.2241693],[-74.125244,40.2241572],[-74.125252,40.224145],[-74.1252739,40.2241285],[-74.1252937,40.2241149],[-74.1253156,40.2240937],[-74.1253256,40.224074],[-74.1253257,40.2240589],[-74.1253217,40.2240513],[-74.1252961,40.22403],[-74.1252429,40.223998],[-74.1251937,40.223969],[-74.1251482,40.2239507],[-74.1251315,40.2239474],[-74.1251146,40.223946],[-74.1250895,40.2239452],[-74.1250499,40.2239459],[-74.1250015,40.2239465],[-74.1249848,40.2239448],[-74.1249652,40.2239415],[-74.1249442,40.2239338],[-74.1249284,40.2239254],[-74.1249061,40.2239114],[-74.1248839,40.2238932],[-74.1248686,40.2238771],[-74.1248576,40.2238599],[-74.1248556,40.2238468],[-74.1248563,40.2238364],[-74.1248563,40.2238267],[-74.124862,40.2238096],[-74.1248665,40.2237969],[-74.1248733,40.2237862],[-74.1248814,40.2237764],[-74.1248901,40.2237702],[-74.1249111,40.2237563],[-74.1249545,40.2237375],[-74.1249651,40.2237316],[-74.1249741,40.2237234],[-74.1249882,40.2237074],[-74.1250015,40.2236848],[-74.1250324,40.2236182],[-74.1250445,40.2235834],[-74.1250488,40.2235608],[-74.1250508,40.2235458],[-74.1250509,40.2235314],[-74.1250484,40.2235159],[-74.1250413,40.223493],[-74.1250253,40.2234696],[-74.1250015,40.2234414],[-74.1249994,40.2234389],[-74.1249786,40.22341],[-74.1249523,40.2233799],[-74.1249398,40.2233628],[-74.124933,40.2233446],[-74.1249302,40.2233297],[-74.1249303,40.2233136],[-74.124936,40.2232965],[-74.1249445,40.2232815],[-74.1249585,40.2232677],[-74.1249809,40.2232538],[-74.1249991,40.2232464],[-74.1250015,40.2232448],[-74.125014,40.2232354],[-74.1250256,40.2232226],[-74.1250359,40.2232082],[-74.125047,40.2231878],[-74.1250658,40.2231256],[-74.1250779,40.2230802],[-74.1250959,40.2230423],[-74.1251079,40.2230181],[-74.1251299,40.2229818],[-74.1251459,40.2229394],[-74.125146,40.2229121],[-74.1251403,40.2228772],[-74.1251247,40.2228362],[-74.1251032,40.2227922],[-74.1250796,40.2227618],[-74.1250383,40.2227222],[-74.1250015,40.2227002],[-74.1249812,40.2226944],[-74.1249485,40.2226857],[-74.1249248,40.2226803],[-74.1248955,40.222677],[-74.124869,40.2226694],[-74.1248515,40.2226647],[-74.1248366,40.2226598],[-74.1248196,40.2226511],[-74.1248029,40.2226382],[-74.1247863,40.2226168],[-74.1247794,40.2226028],[-74.1247753,40.2225825],[-74.1247726,40.222559],[-74.1247756,40.2225237],[-74.1247772,40.2224916],[-74.1247886,40.2224542],[-74.1248026,40.222435],[-74.124818,40.2224243],[-74.1248376,40.2224147],[-74.12486,40.2224041],[-74.124871,40.2223958],[-74.1248754,40.2223892],[-74.1248839,40.2223721],[-74.1248868,40.222354],[-74.1248919,40.2223165],[-74.1248927,40.2222988],[-74.124892,40.2222823],[-74.1248866,40.2222598],[-74.124887,40.2222538],[-74.1248923,40.2222352],[-74.1248967,40.2222042],[-74.1248968,40.2221829],[-74.1248955,40.2221614],[-74.1248943,40.2221379],[-74.1248895,40.2221112],[-74.1248855,40.2220758],[-74.1248732,40.2220309],[-74.1248678,40.222002],[-74.1248556,40.2219431],[-74.1248513,40.2219273],[-74.1248436,40.2219147],[-74.1248344,40.2219039],[-74.1248175,40.221894],[-74.1248014,40.2218873],[-74.1247806,40.2218776],[-74.1247632,40.2218727],[-74.1247508,40.2218705],[-74.1247349,40.221871],[-74.1247264,40.2218721],[-74.1247161,40.2218758],[-74.1247019,40.2218834],[-74.1246917,40.2218898],[-74.1246874,40.2218936],[-74.1246803,40.2218996],[-74.1246589,40.2219264],[-74.1246511,40.2219336],[-74.1246411,40.2219407],[-74.1246281,40.2219466],[-74.1246015,40.2219594],[-74.1245791,40.2219668],[-74.1245652,40.22197],[-74.1245358,40.2219742],[-74.1245093,40.2219794],[-74.1244828,40.2219825],[-74.1244604,40.2219814],[-74.1244465,40.221976],[-74.124432,40.2219653],[-74.1244167,40.2219534],[-74.1244,40.2219341],[-74.1243931,40.221917],[-74.1243891,40.221886],[-74.1243865,40.2218507],[-74.1243811,40.2218132],[-74.1243785,40.2217843],[-74.124373,40.2217683],[-74.1243675,40.2217586],[-74.1243536,40.2217447],[-74.1243369,40.2217318],[-74.1243244,40.2217242],[-74.1243036,40.2217114],[-74.1242841,40.2217006],[-74.1242632,40.2216898],[-74.1242382,40.2216726],[-74.1242215,40.2216619],[-74.1242148,40.2216562],[-74.1242091,40.2216469],[-74.1242077,40.2216362],[-74.1242075,40.2216275],[-74.1242092,40.2216169],[-74.1242135,40.221602],[-74.1242164,40.2215806],[-74.1242124,40.221541],[-74.1242098,40.2215142],[-74.1242051,40.2214671],[-74.1242011,40.2214425],[-74.1241976,40.2214322],[-74.1241931,40.2214235],[-74.1241857,40.2214143],[-74.1241748,40.2214061],[-74.1241484,40.2213878],[-74.1241275,40.2213738],[-74.12409,40.2213523],[-74.1240677,40.2213426],[-74.1240274,40.2213179],[-74.1239829,40.2212814],[-74.123962,40.2212674],[-74.1239468,40.2212588],[-74.1239365,40.2212568],[-74.1239231,40.2212566],[-74.1238882,40.2212565],[-74.1238491,40.2212574],[-74.1238086,40.2212583],[-74.123757,40.2212592],[-74.1237319,40.2212624],[-74.123676,40.2212718],[-74.1236494,40.2212771],[-74.1236145,40.2212866],[-74.1235985,40.2212937],[-74.1235865,40.2213026],[-74.1235767,40.2213121],[-74.1235648,40.2213271],[-74.1235549,40.2213442],[-74.1235492,40.2213591],[-74.1235407,40.2213816],[-74.1235294,40.221404],[-74.1235168,40.2214254],[-74.1235041,40.2214413],[-74.1234887,40.2214595],[-74.1234748,40.22147],[-74.1234453,40.2214871],[-74.1234131,40.2215084],[-74.1233809,40.2215244],[-74.1233417,40.2215392],[-74.1233081,40.2215509],[-74.1232788,40.2215604],[-74.1232369,40.2215678],[-74.1232186,40.2215684],[-74.1231998,40.2215662],[-74.1231783,40.2215622],[-74.1231532,40.2215568],[-74.1231254,40.2215492],[-74.1230891,40.2215373],[-74.123046,40.221519],[-74.1230161,40.2215082],[-74.1229771,40.221491],[-74.1229665,40.2214835],[-74.1229535,40.2214716],[-74.122941,40.2214523],[-74.1229286,40.2214213],[-74.1229218,40.2213966],[-74.1229164,40.2213581],[-74.122914,40.2212907],[-74.1229085,40.2212661],[-74.1229051,40.2212599],[-74.1228989,40.2212532],[-74.1228829,40.2212436],[-74.122855,40.2212349],[-74.1228215,40.2212295],[-74.1227811,40.2212261],[-74.1227295,40.2212206],[-74.1226849,40.221213],[-74.1226291,40.2212032],[-74.1225915,40.2211923],[-74.1225539,40.2211783],[-74.1225303,40.2211675],[-74.1225052,40.2211536],[-74.1224427,40.2211084],[-74.1224149,40.2210912],[-74.1223884,40.2210772],[-74.1223592,40.2210654],[-74.1223304,40.2210618],[-74.1223034,40.2210631],[-74.1222769,40.2210662],[-74.1222531,40.2210714],[-74.1222336,40.2210767],[-74.1222153,40.2210863],[-74.1221888,40.221098],[-74.122165,40.2211043],[-74.122135,40.2211074],[-74.1221196,40.2211063],[-74.1220946,40.2211019],[-74.1220723,40.2210933],[-74.1220524,40.2210804],[-74.1220387,40.2210646],[-74.1220265,40.2210493],[-74.1220168,40.2210332],[-74.1220127,40.2210172],[-74.1220073,40.2209776],[-74.1220117,40.2209423],[-74.1220203,40.2209102],[-74.1220246,40.2208867],[-74.1220256,40.2208759],[-74.1220242,40.2208683],[-74.1220192,40.2208525],[-74.1220124,40.2208279],[-74.1220034,40.2208107],[-74.1219965,40.2207979],[-74.1219632,40.2207582],[-74.121941,40.2207367],[-74.1219174,40.2207217],[-74.1218665,40.2207022],[-74.1218359,40.2206936],[-74.1217983,40.2206892],[-74.1217717,40.220688],[-74.1217522,40.2206901],[-74.1217312,40.2206964],[-74.1216935,40.2207092],[-74.1216641,40.2207176],[-74.1216208,40.2207282],[-74.1216047,40.2207313],[-74.1215783,40.220728],[-74.1215616,40.2207215],[-74.1215407,40.2207097],[-74.1215282,40.220699],[-74.1215116,40.2206743],[-74.1215005,40.220655],[-74.1214853,40.2206358],[-74.1214659,40.22061],[-74.1214575,40.2206036],[-74.1214506,40.2206014],[-74.1214367,40.2206003],[-74.1214213,40.2206013],[-74.121399,40.2205991],[-74.1213794,40.2205969],[-74.1213614,40.2205883],[-74.121335,40.2205732],[-74.1213085,40.2205614],[-74.1212737,40.2205441],[-74.1212514,40.2205344],[-74.1212166,40.2205193],[-74.1211839,40.2205032],[-74.1211548,40.2204796],[-74.1211394,40.2204658],[-74.1211268,40.2204462],[-74.1211174,40.2204238],[-74.1211064,40.2203906],[-74.121101,40.2203607],[-74.121097,40.2203328],[-74.1210985,40.2203029],[-74.1211028,40.2202847],[-74.1211098,40.2202751],[-74.1211225,40.2202677],[-74.1211434,40.220257],[-74.1211809,40.2202431],[-74.1212106,40.2202195],[-74.1212431,40.220198],[-74.1212643,40.2201775],[-74.1213057,40.2201276],[-74.1213145,40.2201121],[-74.1213198,40.2200972],[-74.1213308,40.220063],[-74.1213377,40.2200492],[-74.1213453,40.2200336],[-74.1213579,40.2200171],[-74.1213622,40.2200064],[-74.1213653,40.2199957],[-74.1213675,40.2199823],[-74.1213683,40.2199609],[-74.121365,40.2199349],[-74.1213574,40.2199122],[-74.1213393,40.2198764],[-74.1213198,40.2198397],[-74.1212918,40.2198018],[-74.1212708,40.2197812],[-74.1212497,40.2197638],[-74.1212427,40.2197606],[-74.1212324,40.219759],[-74.1212216,40.2197605],[-74.1212032,40.2197669],[-74.1211821,40.2197787],[-74.121163,40.2197884],[-74.1211347,40.2198056],[-74.1211163,40.2198152],[-74.1211023,40.2198198],[-74.1210895,40.2198216],[-74.1210656,40.2198237],[-74.1210549,40.2198224],[-74.1210431,40.2198182],[-74.1210304,40.2198106],[-74.121022,40.2198009],[-74.1210095,40.2197792],[-74.1209942,40.2197436],[-74.1209774,40.2197122],[-74.1209621,40.2196776],[-74.120951,40.2196559],[-74.1209455,40.2196203],[-74.1209445,40.2195867],[-74.1209474,40.2195716],[-74.1209467,40.2195623],[-74.1209439,40.2195521],[-74.1209328,40.2195293],[-74.1209174,40.2195011],[-74.1209077,40.2194784],[-74.1209021,40.2194567],[-74.1209008,40.2194329],[-74.1209024,40.2194112],[-74.1209067,40.2193906],[-74.1209111,40.2193723],[-74.1209126,40.2193485],[-74.1209113,40.2193246],[-74.1209079,40.2192965],[-74.120904,40.2192553],[-74.1208991,40.2192304],[-74.1208965,40.2191903],[-74.1208911,40.2191514],[-74.1208816,40.2190885],[-74.1208133,40.2187885],[-74.1208134,40.2187873],[-74.120815,40.2187354],[-74.1208181,40.21869],[-74.1208243,40.2185958],[-74.1208289,40.218519],[-74.1208264,40.2184832],[-74.1208166,40.2184594],[-74.1207941,40.2184366],[-74.1207716,40.2184235],[-74.1207448,40.2184213],[-74.1207264,40.2184244],[-74.1206953,40.2184362],[-74.1206754,40.2184502],[-74.1206527,40.2184664],[-74.1206258,40.2184826],[-74.1206003,40.2184955],[-74.1205636,40.218504],[-74.1205395,40.2185029],[-74.1205199,40.2184919],[-74.1204959,40.2184778],[-74.1204601,40.2184506],[-74.1204334,40.2184245],[-74.1204025,40.2183985],[-74.1203715,40.218381],[-74.1203335,40.2183658],[-74.1203109,40.2183603],[-74.1202869,40.2183591],[-74.1202756,40.2183591],[-74.1202142,40.2183459],[-74.1201635,40.2183317],[-74.1201141,40.2183163],[-74.1200634,40.2183021],[-74.1200253,40.218289],[-74.119983,40.2182737],[-74.11995,40.2182541],[-74.1199401,40.2182443],[-74.1199345,40.2182324],[-74.1199346,40.2182172],[-74.1199361,40.2181988],[-74.1199419,40.218188],[-74.1199477,40.2181599],[-74.1199492,40.2181383],[-74.1199451,40.2181144],[-74.1199382,40.2180927],[-74.1199256,40.21807],[-74.1199003,40.2180418],[-74.11988,40.2180125],[-74.1198309,40.2179527],[-74.1197915,40.2179223],[-74.1197718,40.2179136],[-74.119752,40.2179135],[-74.1197337,40.2179167],[-74.1197181,40.2179275],[-74.1196982,40.2179426],[-74.1196713,40.2179544],[-74.1196515,40.2179587],[-74.1196247,40.2179553],[-74.119605,40.2179455],[-74.1195825,40.2179314],[-74.1195586,40.2179118],[-74.1195362,40.2178836],[-74.1195067,40.2178564],[-74.1194863,40.2178293],[-74.1194695,40.2178065],[-74.1194639,40.2177935],[-74.1194627,40.2177675],[-74.1194628,40.2177394],[-74.1194589,40.2176874],[-74.1194521,40.2176408],[-74.119448,40.2176181],[-74.1194582,40.2175618],[-74.1194611,40.2175326],[-74.1194599,40.2175099],[-74.1194543,40.2174904],[-74.1194487,40.2174828],[-74.1194205,40.2174772],[-74.1194007,40.2174783],[-74.1193767,40.2174814],[-74.1193484,40.2174867],[-74.1193082,40.217492],[-74.1192722,40.2174952],[-74.1192227,40.2174972],[-74.1191818,40.2174938],[-74.1191465,40.2174904],[-74.1191126,40.2174838],[-74.1190858,40.2174761],[-74.1190492,40.2174652],[-74.1190069,40.2174477],[-74.1189745,40.2174325],[-74.1189337,40.2174042],[-74.1189063,40.217389],[-74.1188781,40.2173813],[-74.1188386,40.2173714],[-74.1188005,40.2173605],[-74.1187695,40.217356],[-74.1187384,40.2173527],[-74.1186975,40.2173558],[-74.1186734,40.2173611],[-74.1186423,40.2173805],[-74.1186224,40.2174021],[-74.118618,40.2174183],[-74.1186081,40.2174367],[-74.1185953,40.2174518],[-74.1185726,40.2174669],[-74.1185542,40.2174733],[-74.1185344,40.2174798],[-74.1185061,40.217484],[-74.1184609,40.2174893],[-74.1184362,40.2174913],[-74.1184023,40.2174923],[-74.1183811,40.2174868],[-74.1183671,40.217476],[-74.1183502,40.2174629],[-74.1183235,40.2174293],[-74.1182842,40.2173858],[-74.1182561,40.2173587],[-74.1182309,40.217325],[-74.1182282,40.2173012],[-74.1182312,40.2172731],[-74.1182398,40.2172525],[-74.1182442,40.2172266],[-74.1182408,40.2172049],[-74.1182282,40.217181],[-74.11821,40.2171572],[-74.1181832,40.2171397],[-74.1181593,40.2171267],[-74.1181368,40.217119],[-74.118117,40.217119],[-74.1180902,40.2171232],[-74.1180802,40.2171286],[-74.1180604,40.2171426],[-74.1180334,40.2171631],[-74.1180079,40.2171825],[-74.1179866,40.2171975],[-74.117964,40.2172072],[-74.1179484,40.2172115],[-74.117923,40.2172147],[-74.117899,40.2172157],[-74.1178806,40.2172156],[-74.1178355,40.217209],[-74.1177988,40.2172034],[-74.117772,40.2171979],[-74.1177424,40.2171892],[-74.1177241,40.2171761],[-74.1177115,40.2171512],[-74.117706,40.2171263],[-74.1176963,40.2171024],[-74.1176872,40.2170851],[-74.1176662,40.2170536],[-74.1176479,40.2170362],[-74.1176381,40.2170264],[-74.1176029,40.2170036],[-74.1175733,40.2169883],[-74.1175481,40.2169709],[-74.117541,40.2169612],[-74.1175383,40.2169493],[-74.1175412,40.2169254],[-74.1175555,40.2169071],[-74.1175676,40.2168855],[-74.1175804,40.2168617],[-74.117589,40.2168347],[-74.1175934,40.2168163],[-74.1175893,40.2167838],[-74.1175881,40.2167589],[-74.1175769,40.2167459],[-74.1175614,40.2167372],[-74.1175374,40.2167306],[-74.1175092,40.2167262],[-74.1174866,40.2167218],[-74.1174676,40.2167152],[-74.1174507,40.2167065],[-74.1174254,40.2166847],[-74.1174184,40.216675],[-74.11741,40.2166533],[-74.1174073,40.2166425],[-74.1174032,40.2166089],[-74.1173991,40.2165829],[-74.117379,40.2165211],[-74.1173692,40.2164984],[-74.1173594,40.2164821],[-74.1173412,40.2164593],[-74.1173201,40.2164451],[-74.1172905,40.2164332],[-74.1172524,40.2164222],[-74.1172172,40.2164069],[-74.1171834,40.2163917],[-74.117156,40.2163764],[-74.1171264,40.2163579],[-74.1171067,40.216347],[-74.1170785,40.2163393],[-74.1170334,40.2163251],[-74.1170315,40.2163242],[-74.1169884,40.2163033],[-74.1169292,40.2162728],[-74.1169137,40.2162652],[-74.1168757,40.2162553],[-74.1168601,40.2162509],[-74.1168292,40.2162346],[-74.1167982,40.2162128],[-74.1167729,40.2161911],[-74.1167491,40.2161694],[-74.1167266,40.2161423],[-74.1167063,40.2161184],[-74.1166824,40.2160923],[-74.1166515,40.2160673],[-74.116629,40.2160542],[-74.1166121,40.2160477],[-74.1165852,40.2160465],[-74.1165711,40.2160508],[-74.1165534,40.2160594],[-74.1165279,40.2160701],[-74.1165052,40.2160863],[-74.1164812,40.216097],[-74.1164501,40.2161002],[-74.1164176,40.2161001],[-74.1163837,40.2160978],[-74.1163287,40.2160911],[-74.1163005,40.2160845],[-74.1162427,40.2160616],[-74.1162117,40.2160528],[-74.1161722,40.2160473],[-74.1161115,40.2160428],[-74.1160847,40.2160416],[-74.1160522,40.2160317],[-74.1160255,40.2160122],[-74.1160157,40.2159959],[-74.1160116,40.2159721],[-74.1160203,40.215944],[-74.116043,40.2159235],[-74.1160671,40.2159019],[-74.1161026,40.2158695],[-74.1161467,40.2158199],[-74.1161836,40.2157745],[-74.1162063,40.215753],[-74.1162184,40.2157346],[-74.1162284,40.2157162],[-74.116237,40.2156881],[-74.1162458,40.2156319],[-74.1162475,40.2155886],[-74.1162596,40.2154544],[-74.1162656,40.2153916],[-74.1162656,40.2153764],[-74.1162573,40.2153526],[-74.1162475,40.2153352],[-74.1162251,40.2153092],[-74.1162013,40.2152755],[-74.1161858,40.2152528],[-74.1161725,40.21523],[-74.116153,40.215192],[-74.1161461,40.2151595],[-74.1161435,40.2151184],[-74.1161423,40.2150881],[-74.1161341,40.2150447],[-74.1161215,40.2150198],[-74.1160878,40.2149807],[-74.1160668,40.2149558],[-74.1160499,40.2149395],[-74.1160274,40.2149199],[-74.1159937,40.2149003],[-74.1159739,40.2148991],[-74.1159358,40.2149012],[-74.1159033,40.2149],[-74.1158779,40.2149021],[-74.1158426,40.2149009],[-74.1157988,40.2148986],[-74.115772,40.2148941],[-74.1157389,40.2148854],[-74.1157192,40.2148766],[-74.1156966,40.2148625],[-74.1156798,40.2148484],[-74.1156671,40.2148353],[-74.1156531,40.214819],[-74.1156481,40.2148144],[-74.1156391,40.214806],[-74.1156236,40.2148038],[-74.1156052,40.2148048],[-74.115584,40.2148091],[-74.1155501,40.2148144],[-74.1155317,40.2148154],[-74.1154964,40.214812],[-74.1154752,40.2148109],[-74.1154174,40.2147945],[-74.1153787,40.2147846],[-74.1153434,40.2147726],[-74.1153152,40.2147627],[-74.1152956,40.2147508],[-74.1152717,40.214729],[-74.1152534,40.2147106],[-74.1152366,40.2146867],[-74.1152198,40.2146617],[-74.1152087,40.2146357],[-74.1151961,40.2146032],[-74.1151808,40.2145642],[-74.1151696,40.2145371],[-74.1151557,40.2145078],[-74.1151389,40.2144796],[-74.1151207,40.2144546],[-74.1150191,40.2143958],[-74.1149453,40.2143663],[-74.114841,40.2143433],[-74.114817,40.2143443],[-74.1147817,40.2143409],[-74.1146889,40.2143173],[-74.1146195,40.2143085],[-74.1145163,40.2143185],[-74.1144356,40.2143302],[-74.1143913,40.2143407],[-74.1143588,40.2143449],[-74.1143376,40.2143427],[-74.1143207,40.2143416],[-74.1143037,40.2143393],[-74.1142713,40.2143381],[-74.1142543,40.2143392],[-74.1142218,40.2143434],[-74.1141922,40.2143476],[-74.1141724,40.2143497],[-74.114094,40.2143559],[-74.1140444,40.2143753],[-74.1140161,40.2143892],[-74.1139892,40.2144043],[-74.1139666,40.2144161],[-74.1139326,40.2144333],[-74.1139028,40.2144441],[-74.1138873,40.2144516],[-74.1138498,40.2144655],[-74.1137992,40.2144807],[-74.1137744,40.2144906],[-74.1137496,40.2145005],[-74.1137327,40.2145055],[-74.1137131,40.2145074],[-74.1136818,40.2145093],[-74.1136466,40.2145112],[-74.1136271,40.2145141],[-74.1136036,40.214518],[-74.1135828,40.214524],[-74.1135489,40.2145358],[-74.1135214,40.2145437],[-74.1134901,40.2145546],[-74.1134601,40.2145705],[-74.113434,40.2145824],[-74.113383,40.2146042],[-74.1133419,40.214624],[-74.1133171,40.2146359],[-74.1132779,40.2146517],[-74.1132492,40.2146676],[-74.1132309,40.2146756],[-74.1131996,40.2146864],[-74.1131761,40.2146913],[-74.1131487,40.2146932],[-74.113124,40.2146912],[-74.1131032,40.2146891],[-74.1130759,40.214678],[-74.113059,40.214667],[-74.1130383,40.2146519],[-74.1130175,40.2146379],[-74.1129668,40.2146118],[-74.1129285,40.2145937],[-74.1128792,40.2145715],[-74.1128168,40.2145404],[-74.112787,40.2145263],[-74.1127675,40.2145112],[-74.1127429,40.2144892],[-74.1127221,40.2144721],[-74.112688,40.2144266],[-74.1126678,40.2144102],[-74.1126142,40.214362],[-74.1125527,40.2143377],[-74.1125337,40.2143273],[-74.1125181,40.2143118],[-74.1125082,40.2142894],[-74.1124738,40.2142171],[-74.1124515,40.2141964],[-74.1124269,40.2141878],[-74.1123935,40.2141944],[-74.1123674,40.2142034],[-74.1123465,40.2142143],[-74.1123243,40.2142252],[-74.112306,40.2142371],[-74.1122773,40.21425],[-74.1122616,40.2142579],[-74.1122512,40.2142619],[-74.1122407,40.2142638],[-74.1122291,40.2142618],[-74.1122187,40.2142538],[-74.1122135,40.2142438],[-74.112207,40.2142358],[-74.1121955,40.2142128],[-74.1121761,40.2141758],[-74.112162,40.2141448],[-74.1121452,40.2141147],[-74.1121321,40.2140942],[-74.1121233,40.2140824],[-74.1121093,40.2140657],[-74.1120954,40.214051],[-74.1120821,40.2140353],[-74.1120668,40.2140225],[-74.1120503,40.2140157],[-74.1120261,40.2140087],[-74.1120032,40.2140067],[-74.1119789,40.2140056],[-74.1119406,40.2140104],[-74.1119138,40.2140181],[-74.1118945,40.2140337],[-74.111883,40.2140464],[-74.1118714,40.2140649],[-74.1118572,40.2140854],[-74.1118328,40.2141254],[-74.1118135,40.2141469],[-74.111793,40.2141625],[-74.1117726,40.2141722],[-74.111747,40.2141789],[-74.1117227,40.2141798],[-74.1117138,40.2141798],[-74.1116947,40.2141719],[-74.1116769,40.2141621],[-74.111663,40.2141474],[-74.1116516,40.2141356],[-74.1116402,40.2141209],[-74.1116301,40.2140964],[-74.111627,40.2140778],[-74.1116285,40.2140475],[-74.1116376,40.2140182],[-74.1116479,40.2139977],[-74.1116519,40.2139673],[-74.1116558,40.2139459],[-74.1116534,40.2139292],[-74.1116471,40.2139057],[-74.1116396,40.2138852],[-74.1116269,40.2138704],[-74.1116168,40.2138646],[-74.1116002,40.2138576],[-74.1115862,40.2138527],[-74.1115313,40.2138545],[-74.1114956,40.2138583],[-74.1114751,40.2138641],[-74.1114521,40.2138718],[-74.1114227,40.2138844],[-74.1113946,40.2138971],[-74.1113677,40.2139087],[-74.1113486,40.2139155],[-74.1113332,40.2139223],[-74.1112993,40.2139368],[-74.111275,40.2139446],[-74.1112456,40.2139552],[-74.1112175,40.2139649],[-74.1111689,40.2139794],[-74.1111255,40.213991],[-74.1110769,40.2140124],[-74.1110577,40.2140182],[-74.1110321,40.214023],[-74.1110053,40.2140288],[-74.1109562,40.2140325],[-74.110923,40.2140344],[-74.1108988,40.2140333],[-74.1108745,40.2140332],[-74.1108529,40.2140312],[-74.1108274,40.2140252],[-74.110807,40.2140203],[-74.1107815,40.2140104],[-74.110723,40.2139877],[-74.1106911,40.2139759],[-74.1106682,40.213967],[-74.1106466,40.2139562],[-74.1106059,40.2139384],[-74.1105779,40.2139266],[-74.1105597,40.2139177],[-74.1105537,40.2139148],[-74.1105346,40.2139059],[-74.1105028,40.2138901],[-74.1104519,40.2138655],[-74.110429,40.2138556],[-74.1103985,40.2138419],[-74.1103514,40.2138261],[-74.1103157,40.2138132],[-74.1102839,40.2138014],[-74.1102507,40.2137915],[-74.1102202,40.2137806],[-74.1101948,40.2137707],[-74.1101579,40.2137511],[-74.1101324,40.2137363],[-74.1101166,40.2137265],[-74.1101,40.2137118],[-74.1100899,40.213697],[-74.1100875,40.2136775],[-74.1100901,40.213656],[-74.1100954,40.2136364],[-74.1101057,40.2136228],[-74.1101249,40.2136082],[-74.1101531,40.2135828],[-74.1101736,40.2135584],[-74.1101839,40.2135389],[-74.1101981,40.2135184],[-74.1102059,40.2135028],[-74.1102073,40.2134793],[-74.1102061,40.213451],[-74.1102011,40.2134304],[-74.1101898,40.2134147],[-74.1101784,40.2134029],[-74.1101593,40.2133892],[-74.1101326,40.2133715],[-74.1100995,40.2133518],[-74.1100473,40.2133321],[-74.1099951,40.2133172],[-74.1099493,40.2133053],[-74.1098952,40.2132846],[-74.1098685,40.2132738],[-74.1098302,40.2132619],[-74.1098009,40.213254],[-74.1097544,40.2132411],[-74.1097302,40.2132332],[-74.1097061,40.2132204],[-74.1096857,40.2132076],[-74.1096603,40.2131909],[-74.1096387,40.2131762],[-74.1096184,40.2131536],[-74.1096014,40.213131],[-74.1095823,40.2131143],[-74.1095683,40.2131045],[-74.1095454,40.2130947],[-74.1095085,40.2130779],[-74.109478,40.2130641],[-74.1094525,40.2130533],[-74.1093926,40.2130335],[-74.1093583,40.2130217],[-74.1093226,40.2130078],[-74.1093061,40.2130009],[-74.1092832,40.2129823],[-74.1092718,40.2129676],[-74.1092655,40.2129558],[-74.1092625,40.2129343],[-74.1092639,40.2129128],[-74.1092665,40.2128893],[-74.1092743,40.2128707],[-74.1092846,40.2128502],[-74.1092987,40.2128405],[-74.1093256,40.2128298],[-74.109355,40.2128202],[-74.1093805,40.2128124],[-74.1094112,40.2128047],[-74.1094406,40.212797],[-74.1094636,40.2127873],[-74.1094777,40.2127795],[-74.1094905,40.2127639],[-74.1094971,40.2127375],[-74.1094997,40.212716],[-74.109496,40.2126925],[-74.1094885,40.212667],[-74.1094797,40.2126553],[-74.1094396,40.2126258],[-74.1094232,40.2126091],[-74.1094118,40.2125983],[-74.1094004,40.2125826],[-74.1093991,40.2125738],[-74.1093979,40.212564],[-74.1094031,40.2125406],[-74.1094071,40.2125259],[-74.1094174,40.2125025],[-74.1094431,40.2124644],[-74.1094541,40.2124508],[-74.1094785,40.2124254],[-74.1094964,40.212404],[-74.1095043,40.2123727],[-74.1095031,40.2123521],[-74.1094919,40.2123032],[-74.1094844,40.2122836],[-74.1094768,40.2122699],[-74.1094514,40.2122571],[-74.1094424,40.2122512],[-74.1094068,40.2122433],[-74.1093851,40.2122353],[-74.1093597,40.2122304],[-74.1093354,40.2122254],[-74.1093151,40.2122195],[-74.1093036,40.2122155],[-74.109282,40.2121988],[-74.1092731,40.2121861],[-74.1092706,40.2121733],[-74.1092733,40.2121548],[-74.1092759,40.212144],[-74.1092824,40.2121343],[-74.1092978,40.2121216],[-74.1093233,40.212108],[-74.1093566,40.2120895],[-74.1093822,40.2120759],[-74.1094347,40.2120399],[-74.1094507,40.2120263],[-74.1094841,40.2119902],[-74.1095034,40.2119638],[-74.1095356,40.2119092],[-74.1095537,40.2118711],[-74.1095731,40.2118301],[-74.1095809,40.2117988],[-74.1095797,40.2117861],[-74.109576,40.2117704],[-74.1095684,40.2117606],[-74.1095544,40.2117518],[-74.1095378,40.2117488],[-74.1095136,40.2117507],[-74.1094957,40.2117525],[-74.1094816,40.2117593],[-74.1094637,40.2117661],[-74.1094522,40.21177],[-74.1094382,40.2117729],[-74.1094242,40.2117699],[-74.1094,40.2117522],[-74.1093822,40.2117414],[-74.1093721,40.2117345],[-74.1093555,40.2117267],[-74.1093268,40.2117207],[-74.1092988,40.2117216],[-74.1092643,40.2117283],[-74.1092438,40.211736],[-74.1092285,40.2117448],[-74.109222,40.2117516],[-74.1092092,40.2117653],[-74.1091989,40.2117838],[-74.1091912,40.2117955],[-74.109186,40.2118082],[-74.1091782,40.2118346],[-74.1091717,40.211863],[-74.1091626,40.2118835],[-74.1091497,40.2119157],[-74.1091419,40.2119382],[-74.1091329,40.2119508],[-74.1091149,40.2119664],[-74.1091072,40.2119713],[-74.109097,40.2119752],[-74.1090817,40.2119781],[-74.1090689,40.21198],[-74.1090421,40.2119799],[-74.1089924,40.2119758],[-74.1089637,40.2119737],[-74.108914,40.2119667],[-74.1088809,40.2119608],[-74.1088579,40.2119558],[-74.1088235,40.2119469],[-74.1087127,40.211923],[-74.1086922,40.2119229],[-74.1086757,40.211919],[-74.108663,40.2119121],[-74.1086528,40.2119042],[-74.1086413,40.2119003],[-74.1086216,40.2118953],[-74.1085847,40.2118893],[-74.1085502,40.2118882],[-74.1084877,40.2118812],[-74.1084572,40.2118703],[-74.1084324,40.2118585],[-74.108398,40.2118388],[-74.1083625,40.2118152],[-74.1083332,40.2117975],[-74.1083116,40.2117857],[-74.1082887,40.2117759],[-74.108197,40.2117452],[-74.1081601,40.2117324],[-74.1081308,40.2117254],[-74.1081193,40.2117225],[-74.1081027,40.2117224],[-74.1080874,40.2117253],[-74.1080721,40.2117301],[-74.1080516,40.2117389],[-74.1080184,40.2117534],[-74.1079928,40.2117631],[-74.1079558,40.2117669],[-74.1079143,40.2117668],[-74.1078888,40.2117667],[-74.1078327,40.2117616],[-74.1078033,40.2117566],[-74.1077766,40.2117477],[-74.107727,40.211726],[-74.1077079,40.2117172],[-74.1076679,40.2116887],[-74.1076259,40.211667],[-74.1075789,40.2116404],[-74.1075535,40.2116237],[-74.1075179,40.2115992],[-74.1074924,40.2115873],[-74.1074682,40.2115794],[-74.1074465,40.2115774],[-74.1074236,40.2115783],[-74.1073967,40.211585],[-74.1073379,40.2116064],[-74.1073271,40.2116102],[-74.1072996,40.2116199],[-74.1072433,40.2116422],[-74.1071673,40.2116694],[-74.1071529,40.2116748],[-74.1070982,40.2116955],[-74.1070496,40.2117159],[-74.1069652,40.2117538],[-74.1068463,40.2118003],[-74.1068169,40.211811],[-74.1067292,40.2118498],[-74.1066794,40.2118682],[-74.1066333,40.2118954],[-74.1065962,40.2119188],[-74.1065603,40.2119431],[-74.1065449,40.2119626],[-74.1065333,40.211987],[-74.106528,40.2120046],[-74.1065267,40.2120261],[-74.1065354,40.2120526],[-74.1065506,40.2120839],[-74.1065715,40.2121065],[-74.1066146,40.2121585],[-74.1066462,40.2122006],[-74.1066805,40.2122379],[-74.1067121,40.212283],[-74.1067323,40.2123076],[-74.1067437,40.2123271],[-74.1067652,40.2123673],[-74.1067815,40.2124143],[-74.1068003,40.2124662],[-74.1068192,40.2125054],[-74.1068362,40.2125583],[-74.1068373,40.2125837],[-74.1068295,40.2126111],[-74.1068102,40.2126345],[-74.1067897,40.2126462],[-74.1067718,40.212649],[-74.1067565,40.212647],[-74.1067336,40.212643],[-74.106712,40.2126332],[-74.1066697,40.2125941],[-74.1066393,40.2125695],[-74.1066234,40.2125594],[-74.1066053,40.2125549],[-74.1065772,40.2125496],[-74.1065486,40.2125446],[-74.1064925,40.2125327],[-74.106453,40.2125227],[-74.1064237,40.2125158],[-74.1063906,40.212504],[-74.1063651,40.212498],[-74.1062938,40.2124724],[-74.1062658,40.2124683],[-74.106244,40.2124731],[-74.1062319,40.2124829],[-74.1062126,40.2125053],[-74.106192,40.2125287],[-74.1061792,40.2125482],[-74.1061638,40.2125629],[-74.1061343,40.2125862],[-74.1061087,40.2126037],[-74.1060806,40.2126144],[-74.1060537,40.2126212],[-74.1060167,40.212624],[-74.1059618,40.2126258],[-74.105921,40.2126295],[-74.1059031,40.2126334],[-74.1058903,40.2126451],[-74.1058813,40.2126636],[-74.1058734,40.21269],[-74.1058669,40.2127213],[-74.1058642,40.2127487],[-74.1058614,40.2127819],[-74.1058549,40.2128073],[-74.1058408,40.212818],[-74.1058216,40.2128267],[-74.1057738,40.2128325],[-74.1057329,40.2128382],[-74.1056869,40.212841],[-74.1055964,40.2128416],[-74.1055683,40.2128406],[-74.1055339,40.2128277],[-74.1055123,40.212813],[-74.1054882,40.2127992],[-74.105431,40.2127609],[-74.105403,40.2127451],[-74.1053813,40.2127362],[-74.105361,40.2127313],[-74.1053253,40.2127302],[-74.1050892,40.2127304],[-74.1050261,40.212736],[-74.104998,40.2127418],[-74.1049711,40.2127495],[-74.1049519,40.2127602],[-74.1049314,40.2127768],[-74.1049134,40.2127992],[-74.1048916,40.2128246],[-74.1048673,40.2128274],[-74.1048354,40.2128341],[-74.1048111,40.212836],[-74.104778,40.2128388],[-74.1047339,40.2128475],[-74.1047121,40.2128611],[-74.1047005,40.2128757],[-74.1046966,40.2128953],[-74.104699,40.2129266],[-74.104701,40.2129637],[-74.1047013,40.2129687],[-74.1046986,40.2130009],[-74.1046946,40.2130205],[-74.104692,40.2130283],[-74.1046804,40.2130429],[-74.104671,40.2130476],[-74.1046587,40.2130536],[-74.1046344,40.2130565],[-74.1046153,40.2130554],[-74.1046013,40.2130495],[-74.1045592,40.2130435],[-74.1045012,40.2130453],[-74.1044298,40.2130411],[-74.104389,40.2130321],[-74.1043496,40.2130105],[-74.1043178,40.212985],[-74.1043026,40.2129663],[-74.104299,40.2129272],[-74.104298,40.21289],[-74.1042981,40.2128617],[-74.1042906,40.2128313],[-74.1042844,40.2128098],[-74.1042679,40.2127911],[-74.1042323,40.2127666],[-74.1042006,40.212744],[-74.1041783,40.2127214],[-74.1041582,40.212689],[-74.1041239,40.2126547],[-74.1041011,40.2126321],[-74.1040592,40.212584],[-74.1040301,40.2125507],[-74.1040009,40.2125222],[-74.1039653,40.2125016],[-74.103936,40.2124878],[-74.1039048,40.2124818],[-74.1038653,40.2124826],[-74.1038257,40.2124884],[-74.1037848,40.212496],[-74.1037439,40.2125057],[-74.103698,40.2125133],[-74.1036495,40.2125181],[-74.1035959,40.2125238],[-74.1035499,40.2125265],[-74.1035001,40.2125274],[-74.1034236,40.21253],[-74.1033866,40.2125299],[-74.1033317,40.2125268],[-74.1032807,40.2125237],[-74.1032227,40.2125196],[-74.1031883,40.2125145],[-74.1031207,40.2125045],[-74.1030902,40.2124976],[-74.1030571,40.2124799],[-74.1030189,40.2124582],[-74.102991,40.2124386],[-74.1029617,40.2124199],[-74.1029217,40.2123875],[-74.1028964,40.2123649],[-74.1028824,40.2123453],[-74.1028787,40.2123315],[-74.1028737,40.21231],[-74.1028623,40.2122982],[-74.1028432,40.2122962],[-74.1028227,40.212303],[-74.1028112,40.2123147],[-74.1027765,40.2123469],[-74.1027548,40.2123595],[-74.1027382,40.2123624],[-74.1027101,40.2123603],[-74.1026949,40.2123515],[-74.1026847,40.2123377],[-74.1026747,40.2123152],[-74.1026709,40.2122956],[-74.1026634,40.212279],[-74.1026482,40.2122613],[-74.1026178,40.212226],[-74.102581,40.2121975],[-74.1025505,40.2121739],[-74.1025212,40.2121582],[-74.1024703,40.2121365],[-74.1024334,40.2121188],[-74.1023838,40.2120912],[-74.1023443,40.2120793],[-74.1023325,40.212078],[-74.1023086,40.2120753],[-74.1022716,40.2120752],[-74.1022168,40.2120769],[-74.1021861,40.2120827],[-74.1021503,40.2120933],[-74.1021075,40.2121069],[-74.1020909,40.2121117],[-74.1020602,40.2121194],[-74.1020206,40.212133],[-74.1019925,40.2121388],[-74.1019517,40.2121435],[-74.1019032,40.2121434],[-74.1018624,40.2121413],[-74.1018267,40.2121362],[-74.1017923,40.2121215],[-74.1017676,40.2121028],[-74.1017332,40.2120782],[-74.1016955,40.2120153],[-74.1016689,40.2119557],[-74.1016627,40.2119352],[-74.1016603,40.2119019],[-74.1016566,40.2118794],[-74.1016505,40.2118363],[-74.101638,40.2117874],[-74.101623,40.2117365],[-74.1016028,40.2116875],[-74.1015732,40.2116248],[-74.1015506,40.21157],[-74.1015316,40.2115357],[-74.1015102,40.2114984],[-74.1014798,40.2114553],[-74.1014659,40.2114298],[-74.101447,40.2113965],[-74.1014318,40.211372],[-74.1014141,40.2113494],[-74.1013995,40.2113357],[-74.1013741,40.2113092],[-74.1013399,40.2112729],[-74.1012993,40.2112395],[-74.1012587,40.2112031],[-74.1012091,40.2111668],[-74.1011723,40.2111412],[-74.1011036,40.2111087],[-74.101068,40.211089],[-74.1010222,40.2110673],[-74.1009611,40.2110456],[-74.1009343,40.2110387],[-74.1008974,40.2110307],[-74.1008693,40.2110248],[-74.100826,40.2110148],[-74.1007802,40.2109961],[-74.1007293,40.2109773],[-74.1006764,40.2109654],[-74.1006242,40.2109496],[-74.100572,40.2109367],[-74.1004824,40.2109079],[-74.1004604,40.2108994],[-74.1004233,40.2108772],[-74.1004013,40.2108628],[-74.1003836,40.2108426],[-74.1003728,40.2108251],[-74.100369,40.2108075],[-74.1003589,40.2107964],[-74.1003454,40.2107905],[-74.1003268,40.2107872],[-74.100309,40.2107872],[-74.1002836,40.210789],[-74.1002607,40.2107902],[-74.1002387,40.2107921],[-74.1002355,40.2107922],[-74.1002183,40.2107927],[-74.1001963,40.21079],[-74.1001794,40.2107809],[-74.1001693,40.2107724],[-74.100155,40.2107561],[-74.1001407,40.2107366],[-74.1001231,40.2107177],[-74.1000901,40.2106875],[-74.1000682,40.2106689],[-74.0999851,40.2106265],[-74.0999435,40.2105994],[-74.0998887,40.210574],[-74.0997857,40.2105366],[-74.0997386,40.210523],[-74.0997058,40.2105094],[-74.0996598,40.210489],[-74.0996226,40.210467],[-74.0996051,40.2104501],[-74.0995986,40.2104316],[-74.0996031,40.2104131],[-74.099612,40.2103912],[-74.0996232,40.2103643],[-74.0996259,40.2103428],[-74.0996234,40.210328],[-74.0996148,40.2102953],[-74.0996031,40.2102805],[-74.0995843,40.2102565],[-74.0995625,40.2102294],[-74.0995494,40.2102092],[-74.0995364,40.2101822],[-74.09953,40.2101519],[-74.0995126,40.2101299],[-74.0994973,40.2101181],[-74.0994556,40.2101112],[-74.0994051,40.2101077],[-74.0993612,40.2101008],[-74.0993185,40.2100906],[-74.0992615,40.2100718],[-74.0992133,40.2100481],[-74.0991783,40.2100261],[-74.0991609,40.2100109],[-74.0991566,40.2099907],[-74.0991634,40.2099621],[-74.099168,40.2099167],[-74.0991661,40.2098712],[-74.0991531,40.2098341],[-74.0991189,40.20976],[-74.0990847,40.2096562],[-74.0990535,40.2095913],[-74.0990342,40.2095273],[-74.0990169,40.2094768],[-74.0989942,40.2094144],[-74.0989705,40.2093385],[-74.0989424,40.209261],[-74.0989231,40.2091919],[-74.0989037,40.2091144],[-74.0988976,40.2090468],[-74.0988908,40.2089974],[-74.0988719,40.2089133],[-74.0988606,40.2088738],[-74.0988583,40.208823],[-74.0988346,40.208732],[-74.0987976,40.2086848],[-74.0987496,40.2086358],[-74.0987233,40.2086205],[-74.098697,40.208612],[-74.0986356,40.2086],[-74.0985566,40.208593],[-74.0984776,40.2085844],[-74.0983569,40.2085738],[-74.098324,40.2085703],[-74.0982823,40.2085651],[-74.0982538,40.2085583],[-74.0982034,40.2085396],[-74.0981179,40.2085124],[-74.098026,40.2084734],[-74.0979646,40.2084445],[-74.0979012,40.2084106],[-74.0977862,40.208358],[-74.0977402,40.2083377],[-74.0976603,40.2083037],[-74.0976253,40.2082851],[-74.0975135,40.2082392],[-74.0974785,40.208224],[-74.0974391,40.2081969],[-74.097391,40.2081664],[-74.0973386,40.2081242],[-74.0972228,40.2080278],[-74.0971484,40.207972],[-74.0970916,40.2079314],[-74.0970303,40.2078958],[-74.0969877,40.2078704],[-74.0969374,40.2078315],[-74.0968871,40.207791],[-74.0968456,40.2077555],[-74.0968064,40.2077183],[-74.0967626,40.2076794],[-74.0967255,40.2076456],[-74.0967015,40.2076186],[-74.0966535,40.207573],[-74.0966317,40.207551],[-74.0965821,40.2075299],[-74.096514,40.2075079],[-74.0964895,40.2074969],[-74.0964651,40.20748],[-74.0963898,40.2074273],[-74.0963263,40.2073984],[-74.0962715,40.2073831],[-74.0962079,40.2073644],[-74.0961597,40.2073524],[-74.0960961,40.2073387],[-74.0960457,40.2073251],[-74.0959843,40.2073097],[-74.0959382,40.2073028],[-74.0958987,40.207301],[-74.0958636,40.2073009],[-74.0958196,40.2073041],[-74.0957986,40.2073048],[-74.0957754,40.2073037],[-74.0957516,40.2072988],[-74.0957254,40.2072785],[-74.0957069,40.2072549],[-74.0956851,40.2072211],[-74.0956481,40.2071671],[-74.095633,40.207125],[-74.0956179,40.2070778],[-74.0956093,40.2070357],[-74.0955832,40.2069986],[-74.0955526,40.2069766],[-74.095476,40.2069477],[-74.0954518,40.2069426],[-74.0954232,40.2069475],[-74.0953968,40.2069659],[-74.0953725,40.2069877],[-74.0953504,40.2070112],[-74.0953216,40.2070549],[-74.0952972,40.2070935],[-74.0952685,40.2071254],[-74.0952421,40.2071438],[-74.0952178,40.2071522],[-74.0951915,40.2071554],[-74.0951652,40.2071537],[-74.0951323,40.2071468],[-74.0951016,40.2071366],[-74.0950731,40.2071213],[-74.0950492,40.207091],[-74.0950208,40.2070538],[-74.0950057,40.2070134],[-74.0950004,40.2069847],[-74.0950028,40.2069528],[-74.0950139,40.2069208],[-74.0950273,40.2068973],[-74.0950537,40.2068772],[-74.0950801,40.2068621],[-74.0951219,40.2068471],[-74.0951637,40.2068304],[-74.0951814,40.206812],[-74.095186,40.2067851],[-74.0951862,40.2067564],[-74.0951799,40.2067042],[-74.0951714,40.2066554],[-74.0951673,40.2066116],[-74.0951609,40.206583],[-74.0951347,40.2065576],[-74.0950865,40.2065288],[-74.0950253,40.2064848],[-74.0949509,40.2064425],[-74.0948922,40.2064129],[-74.0948568,40.206395],[-74.0948212,40.2063804],[-74.0947867,40.2063662],[-74.0947056,40.2063457],[-74.0946507,40.2063388],[-74.0945979,40.2063311],[-74.0945861,40.2063294],[-74.0945794,40.2063284],[-74.0944697,40.2063246],[-74.0943687,40.2063226],[-74.0942578,40.2063189],[-74.094192,40.2063119],[-74.094102,40.2063049],[-74.0940131,40.2062978],[-74.0938925,40.2062755],[-74.0938224,40.2062584],[-74.0937346,40.2062396],[-74.0936469,40.2062208],[-74.0935242,40.2061816],[-74.0933862,40.2061306],[-74.0932777,40.2060949],[-74.0931725,40.2060625],[-74.0930893,40.2060286],[-74.0930104,40.2059946],[-74.0929316,40.2059539],[-74.092831,40.2058947],[-74.0927457,40.2058439],[-74.0925639,40.2057364],[-74.0924813,40.2056899],[-74.0924262,40.2056646],[-74.0923924,40.2056459],[-74.0923737,40.2056356],[-74.0923387,40.2056104],[-74.0922987,40.2055795],[-74.0922211,40.2055272],[-74.0921402,40.2054901],[-74.0919954,40.2054744],[-74.0917758,40.2054621],[-74.0915096,40.2054419],[-74.0913604,40.2054183],[-74.0911678,40.205397],[-74.0910944,40.2053981],[-74.0910492,40.205396],[-74.0909585,40.2053708],[-74.0909151,40.2053397],[-74.0908751,40.2053126],[-74.0908151,40.205272],[-74.090745,40.2052467],[-74.0906698,40.2052156],[-74.0905746,40.2051787],[-74.0905195,40.2051612],[-74.0904519,40.2051243],[-74.0903743,40.2050836],[-74.0903042,40.2050526],[-74.0902289,40.205035],[-74.0901562,40.2050251],[-74.0900607,40.2050267],[-74.0899753,40.2050283],[-74.0899263,40.2050358],[-74.0898634,40.2050548],[-74.0898282,40.205074],[-74.0898129,40.2051028],[-74.0898102,40.2051279],[-74.0898251,40.2051645],[-74.089845,40.2051915],[-74.0898648,40.2052436],[-74.0898596,40.2052743],[-74.0898393,40.205307],[-74.0897989,40.2053415],[-74.0897686,40.2053665],[-74.0897309,40.2053817],[-74.0896756,40.2053892],[-74.0895977,40.2053947],[-74.0895248,40.2054022],[-74.089457,40.2054058],[-74.0893992,40.2054075],[-74.089344,40.2054092],[-74.0893364,40.2054109],[-74.0892912,40.2054206],[-74.0892359,40.2054339],[-74.0891956,40.2054453],[-74.0891554,40.2054528],[-74.0891202,40.2054488],[-74.08907,40.2054391],[-74.0890175,40.2054196],[-74.0889801,40.2053967],[-74.0889574,40.2053828],[-74.0889099,40.2053519],[-74.0888524,40.2053112],[-74.0887948,40.2052821],[-74.0887447,40.205255],[-74.0887097,40.2052356],[-74.0886672,40.2051912],[-74.0886112,40.2051082],[-74.0885764,40.2050638],[-74.0885293,40.2050216],[-74.0884763,40.204996],[-74.0884387,40.2049901],[-74.0883867,40.2049936],[-74.0883834,40.2049938],[-74.0883356,40.2050129],[-74.0882978,40.205032],[-74.0882601,40.2050472],[-74.0882323,40.2050722],[-74.0881969,40.2051106],[-74.0881602,40.2051586],[-74.0881274,40.2051912],[-74.0881021,40.2052103],[-74.0880744,40.2052199],[-74.0880493,40.2052217],[-74.0880142,40.205212],[-74.0879742,40.2051945],[-74.0879039,40.2051827],[-74.0878785,40.2051826],[-74.0878637,40.2051825],[-74.087836,40.205194],[-74.0878083,40.2052112],[-74.0877806,40.2052323],[-74.0877628,40.2052534],[-74.0877462,40.2053073],[-74.0877235,40.2053303],[-74.0876983,40.2053475],[-74.087663,40.205357],[-74.0876385,40.2053569],[-74.0876354,40.2053569],[-74.0876053,40.2053511],[-74.0875778,40.2053356],[-74.0875654,40.2053105],[-74.0875533,40.2052334],[-74.087551,40.2051911],[-74.0875612,40.205168],[-74.0875815,40.2051373],[-74.0875867,40.2051103],[-74.0875896,40.2050429],[-74.087583,40.2048908],[-74.0875783,40.2048311],[-74.0875732,40.2048089],[-74.087566,40.2047887],[-74.0875572,40.2047741],[-74.0875411,40.2047597],[-74.0875274,40.2047555],[-74.0875135,40.2047539],[-74.0874929,40.2047533],[-74.0874683,40.2047556],[-74.0874474,40.2047627],[-74.0874255,40.2047728],[-74.0873701,40.2047957],[-74.0873047,40.2048205],[-74.0872417,40.2048491],[-74.0871738,40.2048739],[-74.0871209,40.2048911],[-74.0870991,40.2048954],[-74.0870757,40.2048986],[-74.0870481,40.2048985],[-74.0870272,40.2048951],[-74.087013,40.2048888],[-74.087001,40.2048806],[-74.0869917,40.2048733],[-74.086987,40.2048618],[-74.0869819,40.2048405],[-74.0869731,40.2048272],[-74.086961,40.2048149],[-74.0869488,40.2048055],[-74.0869369,40.204798],[-74.0869245,40.2047939],[-74.0869119,40.2047921],[-74.0868982,40.2047931],[-74.0868869,40.2047967],[-74.0868784,40.2048024],[-74.0868699,40.2048125],[-74.0868614,40.2048266],[-74.0868562,40.204867],[-74.086851,40.2048921],[-74.0868382,40.2049247],[-74.0868205,40.204942],[-74.0868037,40.2049541],[-74.0867802,40.204965],[-74.0867475,40.2049725],[-74.0866973,40.2049762],[-74.0866019,40.2049739],[-74.086585,40.2049699],[-74.086578,40.2049674],[-74.0865693,40.2049623],[-74.0865615,40.2049545],[-74.0865543,40.2049449],[-74.0865434,40.2048944],[-74.0865349,40.204837],[-74.0865361,40.2048255],[-74.08654,40.2048158],[-74.086548,40.2048023],[-74.0865527,40.2047928],[-74.0865544,40.2047859],[-74.086558,40.2047504],[-74.0865634,40.2046869],[-74.0865637,40.2046465],[-74.0865488,40.2046233],[-74.0865338,40.2046059],[-74.0864987,40.2045904],[-74.0864687,40.2045691],[-74.0864289,40.2045151],[-74.0864015,40.2044803],[-74.0863941,40.2044533],[-74.0863968,40.2044225],[-74.086412,40.2043899],[-74.0864349,40.2043495],[-74.0864476,40.2043187],[-74.0864554,40.204288],[-74.0864505,40.2042591],[-74.0864435,40.2042446],[-74.0864281,40.204232],[-74.0863929,40.204228],[-74.0863528,40.2042241],[-74.0863252,40.204222],[-74.086285,40.2042277],[-74.0862397,40.2042333],[-74.0862145,40.2042448],[-74.0861918,40.2042601],[-74.0861451,40.2043119],[-74.0860971,40.2043579],[-74.0860542,40.2043886],[-74.0860215,40.2044039],[-74.0859989,40.2044076],[-74.0859637,40.2044017],[-74.0859311,40.2043959],[-74.0859011,40.2043822],[-74.0859,40.2043815],[-74.0858634,40.2043552],[-74.08584,40.2043206],[-74.085821,40.2042711],[-74.0858063,40.2042151],[-74.0857971,40.2041451],[-74.0857847,40.2041103],[-74.0857761,40.2040757],[-74.0857901,40.2040488],[-74.0858205,40.2040104],[-74.0858395,40.2039854],[-74.0858459,40.2039565],[-74.0858461,40.2039276],[-74.0858388,40.203893],[-74.0858289,40.2038679],[-74.0858039,40.2038389],[-74.0857714,40.2038119],[-74.0857514,40.203806],[-74.0857187,40.2038078],[-74.0856811,40.2038038],[-74.085666,40.2038018],[-74.0856159,40.2037843],[-74.0855758,40.203765],[-74.0855358,40.2037379],[-74.0855159,40.2037166],[-74.085506,40.2036896],[-74.0855113,40.2036492],[-74.0855265,40.2036242],[-74.0855719,40.203582],[-74.0856048,40.2035552],[-74.0856124,40.2035321],[-74.0856025,40.2035102],[-74.085579,40.203492],[-74.0855362,40.2034754],[-74.0854826,40.2034687],[-74.0854206,40.2034862],[-74.0854093,40.2034919],[-74.0853904,40.2034909],[-74.0853741,40.2034879],[-74.0853591,40.2034811],[-74.0853435,40.2034695],[-74.0853323,40.203457],[-74.085306,40.2034386],[-74.0852735,40.2034163],[-74.085226,40.2033892],[-74.0850856,40.2033415],[-74.0850355,40.2033327],[-74.084979,40.2033209],[-74.0849114,40.2032995],[-74.0848588,40.203281],[-74.0848055,40.2032616],[-74.0847654,40.203247],[-74.0847328,40.2032324],[-74.0846865,40.2032159],[-74.0846514,40.2032071],[-74.0846012,40.2032021],[-74.0845197,40.2031912],[-74.0844682,40.2031853],[-74.0844425,40.203186],[-74.0844189,40.2031761],[-74.084403,40.2031677],[-74.0843893,40.2031476],[-74.0843358,40.2030867],[-74.0842992,40.203054],[-74.0842683,40.2030235],[-74.0842487,40.2029854],[-74.0842277,40.2029452],[-74.0842109,40.2029028],[-74.0841928,40.2028691],[-74.0841787,40.2028571],[-74.0841575,40.2028505],[-74.084132,40.2028482],[-74.0840981,40.2028514],[-74.0840598,40.2028621],[-74.0840214,40.2028804],[-74.083976,40.2028998],[-74.0839235,40.2029267],[-74.0838539,40.2029677],[-74.0837999,40.202999],[-74.0837331,40.2030433],[-74.0836804,40.2030876],[-74.0836576,40.2031135],[-74.0836489,40.203145],[-74.0836503,40.2031602],[-74.0836685,40.2031819],[-74.0836811,40.2031994],[-74.0836853,40.2032222],[-74.0836837,40.2032363],[-74.0836766,40.2032503],[-74.0836637,40.2032688],[-74.0836338,40.2033088],[-74.0836067,40.203338],[-74.0835753,40.2033824],[-74.0835511,40.2034051],[-74.0835156,40.2034278],[-74.0835142,40.2034288],[-74.0834857,40.2034494],[-74.0834601,40.203471],[-74.0834387,40.2034904],[-74.0834245,40.2035088],[-74.0834173,40.2035262],[-74.0834101,40.2035479],[-74.0834056,40.2035848],[-74.0833998,40.203614],[-74.0833854,40.2036585],[-74.0833723,40.2037149],[-74.0833592,40.2037593],[-74.0833491,40.203794],[-74.0833319,40.2038396],[-74.083316,40.2038862],[-74.0832974,40.2039143],[-74.0832761,40.2039381],[-74.0832604,40.2039533],[-74.0832405,40.2039651],[-74.0832192,40.2039748],[-74.0831909,40.203978],[-74.0831456,40.2039746],[-74.0831003,40.2039722],[-74.0830592,40.2039786],[-74.0830422,40.203984],[-74.0830038,40.2040077],[-74.0829712,40.2040239],[-74.0829484,40.2040422],[-74.0829355,40.2040747],[-74.0829324,40.2041084],[-74.0829337,40.2041366],[-74.082942,40.2041681],[-74.0829574,40.2041888],[-74.0829771,40.2042149],[-74.0830095,40.2042291],[-74.0830378,40.2042412],[-74.0830887,40.2042511],[-74.0831622,40.2042579],[-74.0832203,40.2042625],[-74.0832457,40.2042636],[-74.0832613,40.2042691],[-74.0832753,40.2042833],[-74.0832767,40.2042995],[-74.0832723,40.2043126],[-74.0832638,40.2043245],[-74.0832467,40.2043374],[-74.0832226,40.204345],[-74.0832028,40.2043492],[-74.083173,40.204348],[-74.0831419,40.2043468],[-74.0831079,40.2043445],[-74.0830754,40.2043477],[-74.0830527,40.204353],[-74.0830158,40.2043583],[-74.0829818,40.2043647],[-74.0829436,40.2043656],[-74.0829139,40.2043645],[-74.0828616,40.2043545],[-74.0828291,40.2043338],[-74.0828066,40.204312],[-74.082794,40.2042902],[-74.0827857,40.2042565],[-74.0827873,40.2042272],[-74.0827874,40.2042077],[-74.0827721,40.2041729],[-74.0827453,40.20415],[-74.08272,40.2041315],[-74.0826762,40.2041129],[-74.0826239,40.2040964],[-74.0825801,40.2040854],[-74.0825264,40.2040776],[-74.0824698,40.2040741],[-74.0824287,40.2040773],[-74.0824117,40.2040794],[-74.0823833,40.2040879],[-74.0823578,40.2040976],[-74.0823237,40.2041159],[-74.0822897,40.2041299],[-74.0822513,40.2041515],[-74.0822002,40.2041817],[-74.0821646,40.2042011],[-74.0821178,40.2042248],[-74.0820823,40.204241],[-74.0820568,40.2042496],[-74.0820312,40.2042571],[-74.0820015,40.2042581],[-74.081969,40.2042514],[-74.0819008,40.2042422],[-74.0818459,40.2042456],[-74.0818048,40.2042487],[-74.0817836,40.2042497],[-74.0817652,40.2042453],[-74.0817539,40.2042344],[-74.0817455,40.2042235],[-74.0817343,40.2042017],[-74.0817316,40.2041833],[-74.0817317,40.2041692],[-74.0817404,40.2041323],[-74.0817562,40.2040998],[-74.0817706,40.2040608],[-74.0817878,40.2040218],[-74.0818135,40.203986],[-74.0818335,40.2039492],[-74.0818423,40.2039015],[-74.0818396,40.2038808],[-74.0818425,40.20387],[-74.081854,40.2038516],[-74.0818612,40.2038299],[-74.0818784,40.2037909],[-74.0818927,40.203766],[-74.0818971,40.2037421],[-74.0818986,40.2037258],[-74.0818958,40.2037128],[-74.0818888,40.2037074],[-74.0818719,40.2037019],[-74.0818506,40.2036996],[-74.0817799,40.2036885],[-74.0817545,40.203683],[-74.0817178,40.2036601],[-74.0816939,40.2036404],[-74.0816813,40.2036176],[-74.0816828,40.2036057],[-74.08169,40.2035873],[-74.0816915,40.2035677],[-74.081686,40.2035449],[-74.0816665,40.2034949],[-74.0816624,40.2034764],[-74.0816667,40.2034558],[-74.0816838,40.2034288],[-74.0817081,40.2033974],[-74.0817239,40.2033735],[-74.0817425,40.2033345],[-74.0817597,40.2032944],[-74.0817671,40.2032511],[-74.0817644,40.2032261],[-74.0817547,40.2031935],[-74.0817407,40.203163],[-74.0817225,40.2031391],[-74.0816914,40.203114],[-74.0816576,40.2030911],[-74.0816323,40.2030737],[-74.0815938,40.203048],[-74.0815605,40.2030286],[-74.0815257,40.2030146],[-74.081484,40.203007],[-74.0814407,40.2030089],[-74.0814017,40.2030131],[-74.0813752,40.2030172],[-74.0813501,40.2030204],[-74.0812972,40.2030245],[-74.0812623,40.2030254],[-74.0812261,40.2030199],[-74.0811997,40.203007],[-74.0811845,40.202992],[-74.0811791,40.2029652],[-74.081175,40.2029513],[-74.0811653,40.2029385],[-74.0811362,40.2029181],[-74.0811057,40.2028966],[-74.0810543,40.2028729],[-74.081017,40.2028629],[-74.0809805,40.2028556],[-74.0809471,40.2028555],[-74.0809081,40.2028564],[-74.0808426,40.2028583],[-74.080752,40.2028654],[-74.0806798,40.202873],[-74.0806544,40.2028736],[-74.0806266,40.2028705],[-74.0805823,40.2028568],[-74.0805381,40.2028385],[-74.0804673,40.2028019],[-74.0804202,40.2027678],[-74.0804026,40.2027518],[-74.0803644,40.2027063],[-74.0803283,40.20267],[-74.0803115,40.2026585],[-74.0802936,40.20265],[-74.0802702,40.2026448],[-74.0802475,40.2026436],[-74.0802258,40.2026469],[-74.0802021,40.2026503],[-74.0801843,40.2026558],[-74.0801786,40.2026614],[-74.0801754,40.2026694],[-74.0801633,40.2027124],[-74.0801547,40.2027271],[-74.0801394,40.2027418],[-74.0801238,40.2027512],[-74.0801039,40.2027598],[-74.0800857,40.202761],[-74.0800654,40.2027597],[-74.0800525,40.2027566],[-74.0800389,40.2027505],[-74.0800299,40.2027416],[-74.0800268,40.2027335],[-74.0800156,40.2027086],[-74.0800038,40.2026778],[-74.0799953,40.2026211],[-74.0799888,40.2025955],[-74.0799896,40.2025803],[-74.079993,40.202567],[-74.0800076,40.2025395],[-74.0800226,40.202501],[-74.0800251,40.2024777],[-74.0800229,40.2024557],[-74.080018,40.202438],[-74.0800084,40.2024193],[-74.0799924,40.2023975],[-74.0799731,40.2023784],[-74.0799496,40.2023692],[-74.0799311,40.2023675],[-74.0799111,40.2023691],[-74.0798938,40.2023729],[-74.0798785,40.2023803],[-74.0798638,40.2023834],[-74.0798489,40.2023847],[-74.07982,40.2023832],[-74.0797928,40.2023777],[-74.0797322,40.2023651],[-74.0797077,40.2023543],[-74.079685,40.2023501],[-74.0796656,40.2023473],[-74.0796406,40.2023477],[-74.0796259,40.2023503],[-74.0796095,40.2023567],[-74.0795769,40.2023758],[-74.0795339,40.2023995],[-74.0795013,40.2024118],[-74.079483,40.2024149],[-74.079462,40.2024161],[-74.0794406,40.202415],[-74.079417,40.2024081],[-74.0793935,40.2023922],[-74.0793829,40.202381],[-74.07937,40.2023671],[-74.0793636,40.2023561],[-74.0793583,40.2023455],[-74.0793508,40.2023331],[-74.0793392,40.2023206],[-74.079321,40.2023045],[-74.0792985,40.2022864],[-74.0792656,40.2022647],[-74.0792184,40.2022385],[-74.0791772,40.2022168],[-74.0791285,40.2021962],[-74.0790902,40.2021825],[-74.0790298,40.2021414],[-74.0789975,40.2021084],[-74.0789887,40.2020984],[-74.0789754,40.2020902],[-74.078912,40.2020673],[-74.0788603,40.2020501],[-74.078819,40.2020432],[-74.0787924,40.2020419],[-74.0787732,40.2020441],[-74.0787539,40.2020475],[-74.0787445,40.2020534],[-74.078739,40.2020605],[-74.0787248,40.2020836],[-74.0787099,40.2021045],[-74.0786966,40.2021164],[-74.0786802,40.2021249],[-74.0786632,40.2021305],[-74.0786477,40.2021315],[-74.0786388,40.2021298],[-74.0786226,40.2021218],[-74.078613,40.2021099],[-74.078605,40.2020939],[-74.0785978,40.202073],[-74.0785971,40.2020543],[-74.0785993,40.2020374],[-74.0786119,40.2020088],[-74.0786245,40.2019822],[-74.0786274,40.2019249],[-74.0786328,40.2018619],[-74.0786281,40.2018066],[-74.0786184,40.2017684],[-74.0786063,40.2017469],[-74.0785888,40.2017234],[-74.0785653,40.2017014],[-74.078543,40.2016803],[-74.0785195,40.2016659],[-74.0784934,40.2016591],[-74.0784672,40.2016571],[-74.0784398,40.2016599],[-74.0784174,40.2016684],[-74.0783974,40.2016759],[-74.0783724,40.2016873],[-74.07835,40.2016948],[-74.0783313,40.2016957],[-74.0783192,40.2016949],[-74.0783089,40.20169],[-74.0782953,40.2016803],[-74.0782867,40.2016612],[-74.0782782,40.2016307],[-74.0782759,40.2016106],[-74.0782794,40.2015967],[-74.078286,40.201581],[-74.0783011,40.2015592],[-74.0783248,40.2015392],[-74.0783449,40.2015192],[-74.0783512,40.2015088],[-74.0783577,40.2014877],[-74.0783602,40.201462],[-74.0783691,40.2014258],[-74.0783754,40.2014125],[-74.0783867,40.2013934],[-74.0783918,40.201382],[-74.0783933,40.2013687],[-74.0783909,40.2013587],[-74.0783862,40.2013456],[-74.0783796,40.2013333],[-74.0783725,40.2013226],[-74.0783636,40.2013151],[-74.0783413,40.2012997],[-74.078309,40.2012882],[-74.0782742,40.2012747],[-74.0782407,40.2012593],[-74.078165,40.2012113],[-74.0781254,40.2011825],[-74.0781056,40.2011729],[-74.0780782,40.2011699],[-74.0780533,40.2011708],[-74.0780035,40.2011744],[-74.0779748,40.201181],[-74.0779548,40.2011905],[-74.077945,40.2012],[-74.0779385,40.2012085],[-74.0779285,40.2012257],[-74.0779259,40.2012438],[-74.0779281,40.2012906],[-74.0779266,40.2013278],[-74.0779214,40.2013583],[-74.0779182,40.201371],[-74.0779126,40.201385],[-74.0779052,40.2013954],[-74.0778975,40.201404],[-74.0778811,40.2014148],[-74.0778668,40.2014229],[-74.0778513,40.2014281],[-74.0778375,40.2014299],[-74.0778177,40.2014305],[-74.0778068,40.2014281],[-74.0777984,40.2014247],[-74.0777918,40.2014199],[-74.0777867,40.2014141],[-74.0777843,40.2014063],[-74.0777831,40.201396],[-74.0777795,40.2013626],[-74.0777761,40.2013167],[-74.0777625,40.2012715],[-74.0777495,40.2012535],[-74.0777393,40.2012467],[-74.0777178,40.2012414],[-74.0776847,40.2012342],[-74.0776682,40.2012311],[-74.0776531,40.2012228],[-74.0776424,40.2012108],[-74.0776323,40.2011947],[-74.0776202,40.2011782],[-74.0776112,40.2011685],[-74.0775814,40.2011348],[-74.0775538,40.2011081],[-74.0775156,40.2010737],[-74.0774833,40.2010535],[-74.0774587,40.2010446],[-74.0774457,40.2010439],[-74.0774341,40.2010457],[-74.0774148,40.2010586],[-74.0774001,40.2010709],[-74.0773783,40.2010894],[-74.0773632,40.2010974],[-74.0773421,40.2011169],[-74.0773224,40.2011307],[-74.0772968,40.2011456],[-74.0772787,40.2011478],[-74.0772426,40.20115],[-74.077196,40.2011545],[-74.0771403,40.2011612],[-74.0771207,40.2011703],[-74.0771101,40.2011853],[-74.0771085,40.2011991],[-74.0771069,40.2012129],[-74.0771113,40.201236],[-74.0771217,40.2012602],[-74.077132,40.2012948],[-74.0771482,40.2013514],[-74.077151,40.2013848],[-74.0771626,40.2014506],[-74.0771712,40.2015163],[-74.077174,40.2015521],[-74.0771634,40.2015693],[-74.0771513,40.2015773],[-74.0771287,40.2015819],[-74.0771061,40.2015829],[-74.0770791,40.2015782],[-74.0770551,40.2015678],[-74.0770401,40.2015654],[-74.077019,40.2015699],[-74.0770055,40.201578],[-74.0769677,40.2016032],[-74.0769254,40.2016296],[-74.0768877,40.2016536],[-74.076853,40.20168],[-74.0768349,40.2016949],[-74.0768198,40.2016995],[-74.0767988,40.2016994],[-74.0767627,40.2016924],[-74.0767432,40.2016854],[-74.0767253,40.2016726],[-74.0767163,40.2016611],[-74.0767134,40.2016414],[-74.0767211,40.2016092],[-74.0767424,40.2015793],[-74.0767606,40.2015563],[-74.0767668,40.2015229],[-74.076764,40.2014929],[-74.0767566,40.2014699],[-74.0767282,40.2014467],[-74.0766742,40.2014119],[-74.0766143,40.2013783],[-74.0765724,40.2013585],[-74.0765379,40.2013434],[-74.0765169,40.2013376],[-74.0764974,40.2013369],[-74.0764823,40.2013374],[-74.0764605,40.2013397],[-74.0764417,40.2013413],[-74.0764153,40.201347],[-74.0763965,40.2013498],[-74.0763807,40.2013497],[-74.076371,40.2013451],[-74.0763605,40.2013381],[-74.0763538,40.2013295],[-74.0763516,40.2013168],[-74.0763585,40.2012989],[-74.0763608,40.2012886],[-74.0763571,40.2012776],[-74.0763504,40.2012724],[-74.0763339,40.2012654],[-74.0763107,40.2012584],[-74.0762673,40.20125],[-74.0762375,40.2012442],[-74.0761494,40.201222],[-74.0761233,40.20122],[-74.0760774,40.2012169],[-74.0760476,40.2012178],[-74.0760276,40.2012244],[-74.0760114,40.2012358],[-74.0760064,40.2012462],[-74.0760088,40.2012586],[-74.0760161,40.2012843],[-74.0760334,40.2013082],[-74.076058,40.2013445],[-74.076069,40.2013731],[-74.0760726,40.2013913],[-74.0760737,40.2014189],[-74.0760686,40.2014303],[-74.0760636,40.2014388],[-74.0760486,40.2014502],[-74.0760162,40.2014682],[-74.0759776,40.2014871],[-74.0759352,40.2015079],[-74.0759065,40.2015211],[-74.0758829,40.2015325],[-74.075863,40.2015391],[-74.0758468,40.2015409],[-74.0758307,40.201539],[-74.075817,40.2015351],[-74.0757997,40.2015246],[-74.0757862,40.2015064],[-74.0757689,40.2014797],[-74.0757431,40.2014405],[-74.0756987,40.2013804],[-74.0756605,40.201325],[-74.0756298,40.2012829],[-74.0756162,40.2012688],[-74.0756055,40.2012609],[-74.0755964,40.2012547],[-74.075583,40.2012484],[-74.0755717,40.2012438],[-74.0755556,40.2012413],[-74.0755421,40.2012408],[-74.0755281,40.2012424],[-74.0755146,40.2012473],[-74.0755022,40.2012535],[-74.0754795,40.2012662],[-74.0754484,40.2012832],[-74.0754047,40.2013145],[-74.075356,40.2013553],[-74.0753185,40.2013894],[-74.0752935,40.2014189],[-74.0752809,40.2014417],[-74.0752733,40.2014655],[-74.0752645,40.2014873],[-74.0752495,40.2015092],[-74.0752369,40.2015234],[-74.075217,40.2015405],[-74.075172,40.2015756],[-74.0751408,40.2016012],[-74.0751084,40.2016249],[-74.0750897,40.2016324],[-74.0750748,40.2016333],[-74.0750512,40.2016304],[-74.0750289,40.2016227],[-74.0750103,40.2016122],[-74.0749967,40.2016086],[-74.0749792,40.2016071],[-74.0749636,40.2016085],[-74.0749507,40.2016094],[-74.0749407,40.2016138],[-74.074927,40.2016223],[-74.0748884,40.2016346],[-74.0748728,40.2016375],[-74.074854,40.2016394],[-74.07483,40.201641],[-74.0748177,40.2016403],[-74.0748076,40.2016381],[-74.074794,40.2016304],[-74.0747861,40.2016213],[-74.074778,40.2016094],[-74.0747658,40.201577],[-74.0747598,40.2015426],[-74.0747568,40.2015218],[-74.0747563,40.2015074],[-74.0747603,40.2014935],[-74.0747664,40.2014808],[-74.0747864,40.2014541],[-74.074799,40.2014275],[-74.0748079,40.2014009],[-74.0748132,40.2013523],[-74.0748122,40.2013114],[-74.0748088,40.2012504],[-74.0748078,40.201218],[-74.074803,40.2011818],[-74.0747959,40.201136],[-74.0747867,40.2010996],[-74.0747776,40.2010712],[-74.0747714,40.2010578],[-74.0747469,40.2009565],[-74.0746585,40.2008076],[-74.074596,40.2007204],[-74.0745936,40.2007047],[-74.0745789,40.2006771],[-74.074558,40.2006389],[-74.0745271,40.2006064],[-74.0744876,40.2005748],[-74.0744504,40.2005489],[-74.0743613,40.2004859],[-74.0743169,40.2004702],[-74.0742509,40.2004844],[-74.0742464,40.2004845],[-74.0741974,40.2004861],[-74.0741663,40.2004926],[-74.0741414,40.2004976],[-74.0741124,40.2005094],[-74.07395,40.2005461],[-74.0738208,40.200557],[-74.0737306,40.2005508],[-74.0736787,40.2005439],[-74.0736148,40.2005449],[-74.0734362,40.2005214],[-74.0732379,40.2004711],[-74.0731587,40.200429],[-74.0730203,40.2003446],[-74.0729712,40.2003376],[-74.0729244,40.2003289],[-74.0728442,40.2003097],[-74.0727396,40.2002769],[-74.0726638,40.2002629],[-74.072597,40.2002404],[-74.0725169,40.2002093],[-74.0724524,40.2001886],[-74.0724101,40.2001713],[-74.0723678,40.2001455],[-74.072319,40.2001111],[-74.0722635,40.2000698],[-74.0722036,40.20002],[-74.0721436,40.1999667],[-74.0721169,40.1999467],[-74.072095,40.199936],[-74.0720673,40.1999222],[-74.0720373,40.1999083],[-74.0720153,40.1999014],[-74.0720031,40.1998982],[-74.0719857,40.199896],[-74.0719456,40.1998942],[-74.0718964,40.1998957],[-74.0718362,40.1999006],[-74.071796,40.1999022],[-74.0717862,40.1999012],[-74.071774,40.1998999],[-74.0717626,40.199896],[-74.071747,40.19989],[-74.0716848,40.1998487],[-74.0716116,40.1997869],[-74.0715472,40.1997421],[-74.0714871,40.199718],[-74.0714382,40.1996836],[-74.0713872,40.1996389],[-74.0713385,40.1995737],[-74.0712832,40.1995102],[-74.0712499,40.1994776],[-74.0712188,40.1994536],[-74.0711815,40.1994393],[-74.0711369,40.1994191],[-74.0710907,40.1993964],[-74.0710123,40.1993464],[-74.0709715,40.199313],[-74.0709517,40.1992913],[-74.070928,40.1992573],[-74.0709036,40.1992158],[-74.0708645,40.1991739],[-74.0708284,40.1991422],[-74.0707792,40.1991089],[-74.0707331,40.1990862],[-74.0706669,40.1990599],[-74.0706114,40.1990419],[-74.0705391,40.1990097],[-74.0704991,40.198993],[-74.0704237,40.1989513],[-74.0703237,40.198893],[-74.0702115,40.1988251],[-74.0701223,40.1987809],[-74.0700422,40.1987499],[-74.0699575,40.1987176],[-74.0699339,40.1987085],[-74.069909,40.1986969],[-74.0698892,40.1986848],[-74.0698603,40.1986669],[-74.0698355,40.1986528],[-74.069804,40.1986367],[-74.0697701,40.1986213],[-74.0697014,40.1986014],[-74.0696641,40.1985942],[-74.0696014,40.1985913],[-74.0695434,40.1985932],[-74.069484,40.1985875],[-74.0694175,40.1985765],[-74.0693582,40.1985632],[-74.0692861,40.1985401],[-74.0692254,40.1985204],[-74.0691873,40.198504],[-74.0691238,40.198469],[-74.0690745,40.1984265],[-74.0690521,40.1983895],[-74.069034,40.198345],[-74.0690286,40.1983069],[-74.0690273,40.1982907],[-74.0690373,40.1982766],[-74.0690586,40.1982647],[-74.0690813,40.198254],[-74.0690913,40.1982421],[-74.0690956,40.1982323],[-74.0691014,40.1982074],[-74.0691015,40.1981889],[-74.0691087,40.1981738],[-74.0691244,40.1981543],[-74.0691386,40.1981413],[-74.0691514,40.1981338],[-74.0691912,40.1981155],[-74.0692338,40.1980842],[-74.0692665,40.1980593],[-74.0692779,40.198042],[-74.0692809,40.1980235],[-74.0692755,40.1979855],[-74.06927,40.1979562],[-74.0692618,40.1979171],[-74.069255,40.1978693],[-74.0692539,40.1978129],[-74.0692601,40.197738],[-74.0692602,40.1977228],[-74.0692659,40.1977033],[-74.0692803,40.1976697],[-74.0693118,40.1976069],[-74.069342,40.1975354],[-74.0693522,40.1974964],[-74.0693523,40.1974758],[-74.0693411,40.1974507],[-74.069323,40.197404],[-74.0692698,40.1973116],[-74.0692139,40.1972072],[-74.069183,40.1971593],[-74.0691761,40.1971354],[-74.0691773,40.1971227],[-74.0691776,40.197118],[-74.0691805,40.1971072],[-74.0691976,40.197091],[-74.069219,40.1970683],[-74.0692305,40.1970444],[-74.0692321,40.197014],[-74.0692281,40.1969717],[-74.0692212,40.1969402],[-74.0691892,40.1968544],[-74.0691528,40.1967869],[-74.0691247,40.1967543],[-74.0691022,40.1967433],[-74.0690824,40.1967411],[-74.0690583,40.196741],[-74.0690158,40.1967528],[-74.068969,40.1967645],[-74.0689307,40.1967828],[-74.0688598,40.1968075],[-74.0687975,40.1968289],[-74.0686893,40.1968612],[-74.0686641,40.196872],[-74.0686409,40.1968813],[-74.0686104,40.196891],[-74.0685851,40.1968983],[-74.0685654,40.1969034],[-74.0685556,40.1969044],[-74.0685426,40.1969052],[-74.0685172,40.1969048],[-74.0684997,40.196904],[-74.0684798,40.196902],[-74.0684649,40.1968989],[-74.0684254,40.1968896],[-74.0684018,40.196883],[-74.0683821,40.1968772],[-74.0683611,40.1968714],[-74.0683576,40.1968703],[-74.0683497,40.196867],[-74.0683427,40.1968636],[-74.0683351,40.1968585],[-74.0683275,40.1968529],[-74.0683225,40.1968492],[-74.0683176,40.1968449],[-74.0682985,40.1968279],[-74.0682834,40.1968133],[-74.0682758,40.1968064],[-74.0682706,40.1968013],[-74.0682672,40.1967973],[-74.0682636,40.1967928],[-74.0682607,40.1967878],[-74.0682571,40.1967813],[-74.0682545,40.1967767],[-74.0682524,40.1967709],[-74.0682506,40.1967616],[-74.0682507,40.1967588],[-74.0682525,40.1967522],[-74.0682587,40.1967403],[-74.0682642,40.1967294],[-74.0682698,40.1967122],[-74.0682715,40.1967049],[-74.0682719,40.1966976],[-74.0682716,40.196692],[-74.0682699,40.1966862],[-74.068268,40.1966795],[-74.0682657,40.1966745],[-74.068262,40.1966674],[-74.0682586,40.1966622],[-74.0682545,40.1966574],[-74.0682474,40.1966525],[-74.0682403,40.1966486],[-74.068232,40.196644],[-74.0682234,40.1966401],[-74.0682116,40.1966356],[-74.0682017,40.1966328],[-74.0681929,40.1966291],[-74.0681851,40.1966251],[-74.0681786,40.1966208],[-74.0681739,40.196616],[-74.0681715,40.1966107],[-74.0681699,40.1966051],[-74.0681687,40.1965996],[-74.0681686,40.1965941],[-74.0681688,40.1965882],[-74.0681694,40.1965832],[-74.068171,40.1965763],[-74.0681729,40.1965696],[-74.0681766,40.1965622],[-74.0681825,40.196553],[-74.0681883,40.1965441],[-74.0681969,40.1965333],[-74.0682146,40.1965182],[-74.0682228,40.196511],[-74.0682558,40.1964854],[-74.0682875,40.1964562],[-74.0683089,40.1964356],[-74.0683519,40.1963962],[-74.0683519,40.1963961],[-74.0683454,40.1963565],[-74.0683399,40.1963315],[-74.0683322,40.1963082],[-74.0683222,40.1962943],[-74.0683027,40.1962772],[-74.0682976,40.1962727],[-74.0682798,40.1962494],[-74.0682647,40.1962291],[-74.0682598,40.196214],[-74.0682582,40.1961976],[-74.0682623,40.1961761],[-74.068268,40.1961571],[-74.0682737,40.1961455],[-74.0682822,40.1961382],[-74.0682985,40.1961288],[-74.0683171,40.1961194],[-74.0683312,40.196113],[-74.0683475,40.1961101],[-74.0683734,40.1961084],[-74.068381,40.1961075],[-74.0683919,40.1961035],[-74.0683934,40.1961026],[-74.0683998,40.1960985],[-74.0684016,40.1960947],[-74.0684028,40.1960861],[-74.0684034,40.1960745],[-74.068407,40.1960422],[-74.0684111,40.196006],[-74.0684084,40.1959879],[-74.0684001,40.195971],[-74.0683817,40.1959559],[-74.0683592,40.1959455],[-74.0683312,40.1959415],[-74.0683171,40.195941],[-74.0682941,40.1959422],[-74.0682795,40.1959439],[-74.0682733,40.1959452],[-74.0682626,40.1959511],[-74.0682502,40.195958],[-74.0682366,40.1959678],[-74.0682203,40.1959807],[-74.0681999,40.1960005],[-74.0681841,40.1960181],[-74.0681631,40.1960395],[-74.0681439,40.196058],[-74.068127,40.196073],[-74.0681117,40.1960863],[-74.0680942,40.1960974],[-74.0680728,40.1961103],[-74.0680576,40.1961189],[-74.0680446,40.196124],[-74.0680305,40.1961269],[-74.0680159,40.1961278],[-74.068003,40.196126],[-74.0679929,40.1961221],[-74.0679823,40.1961177],[-74.0679716,40.1961086],[-74.0679667,40.1960983],[-74.0679628,40.1960879],[-74.0679618,40.1960702],[-74.067963,40.196053],[-74.0679648,40.196041],[-74.0679711,40.1960212],[-74.0679808,40.1960018],[-74.0679904,40.1959855],[-74.0679983,40.195976],[-74.0680176,40.1959558],[-74.0680402,40.1959357],[-74.0680549,40.1959241],[-74.0680572,40.1959194],[-74.0680583,40.1959099],[-74.0680578,40.1959013],[-74.0680545,40.1958944],[-74.0680433,40.1958835],[-74.0680299,40.1958762],[-74.0680074,40.1958714],[-74.0679844,40.1958665],[-74.0679619,40.1958656],[-74.0679339,40.1958681],[-74.0679131,40.1958693],[-74.0678951,40.1958696],[-74.0678726,40.1958687],[-74.0678445,40.1958669],[-74.0678209,40.1958642],[-74.0678047,40.1958598],[-74.0677795,40.195852],[-74.0677548,40.1958445],[-74.0677239,40.195835],[-74.0677065,40.1958328],[-74.0676964,40.1958331],[-74.0676857,40.1958357],[-74.067675,40.1958408],[-74.0676626,40.1958459],[-74.0676479,40.1958549],[-74.0676293,40.195863],[-74.0676096,40.1958724],[-74.0675944,40.1958797],[-74.0675792,40.1958844],[-74.0675674,40.1958848],[-74.0675505,40.195883],[-74.0675354,40.1958782],[-74.0675214,40.1958661],[-74.0675148,40.1958566],[-74.0675138,40.1958372],[-74.0675139,40.1958191],[-74.0675084,40.1957958],[-74.0674928,40.1957703],[-74.0674767,40.1957513],[-74.0674489,40.1957218],[-74.0674241,40.195701],[-74.0673558,40.1956673],[-74.0673142,40.1956592],[-74.0672851,40.1956623],[-74.0672497,40.1956781],[-74.0672164,40.1956955],[-74.0671621,40.1957335],[-74.0671141,40.1957604],[-74.0670787,40.195781],[-74.0670412,40.1957904],[-74.0669913,40.1958014],[-74.0669621,40.1958124],[-74.0669433,40.1958283],[-74.066914,40.19586],[-74.0668533,40.1959267],[-74.0668218,40.1959776],[-74.0667905,40.1960149],[-74.0667642,40.1960515],[-74.0667402,40.1960833],[-74.0667234,40.1960983],[-74.0667099,40.1961023],[-74.0666974,40.196103],[-74.0666798,40.1961022],[-74.0666559,40.1961013],[-74.0666144,40.1960995],[-74.0665977,40.196101],[-74.0665748,40.1961073],[-74.0665655,40.1961113],[-74.0665581,40.19612],[-74.0665518,40.1961335],[-74.0665422,40.1961725],[-74.0665336,40.1962171],[-74.0665303,40.1962482],[-74.066531,40.1962968],[-74.0665267,40.1963215],[-74.0665256,40.1963382],[-74.0665276,40.1963462],[-74.0665338,40.1963542],[-74.0665458,40.1963617],[-74.0665621,40.1963744],[-74.0665744,40.1963823],[-74.0665826,40.1963934],[-74.0665845,40.1964154],[-74.0665823,40.1964343],[-74.0665781,40.1964516],[-74.0665698,40.1964642],[-74.0665553,40.1964736],[-74.0665265,40.1964814],[-74.0664978,40.1964876],[-74.0664895,40.196497],[-74.0664874,40.1965033],[-74.0664914,40.1965206],[-74.0665036,40.1965443],[-74.0665116,40.1965695],[-74.0665053,40.1965837],[-74.0664991,40.1965899],[-74.0664847,40.1966009],[-74.0664682,40.1966166],[-74.0664578,40.1966323],[-74.0664515,40.1966496],[-74.066439,40.1966779],[-74.0664122,40.196703],[-74.0663915,40.1967234],[-74.0663869,40.1967258],[-74.0663668,40.1967359],[-74.0663215,40.19675],[-74.0662824,40.1967577],[-74.0662166,40.19677],[-74.0661568,40.1967737],[-74.0661446,40.1967687],[-74.0661342,40.19676],[-74.0661291,40.1967435],[-74.0661284,40.1967229],[-74.0661208,40.1967134],[-74.0660999,40.1967071],[-74.0660677,40.1966996],[-74.0660355,40.196692],[-74.0660049,40.1966833],[-74.0659695,40.1966633],[-74.0659535,40.1966447],[-74.0659407,40.1966224],[-74.0659327,40.1966051],[-74.0659167,40.1965877],[-74.0659103,40.1965753],[-74.0658911,40.1965579],[-74.0658622,40.196533],[-74.0658414,40.1965057],[-74.0658126,40.1964759],[-74.0657755,40.1964597],[-74.0657595,40.1964547],[-74.0657544,40.1964551],[-74.065733,40.1964228],[-74.0657157,40.1963837],[-74.0657085,40.1963679],[-74.0656987,40.1963573],[-74.0656858,40.1963523],[-74.0656378,40.1963667],[-74.0656125,40.1963785],[-74.0655985,40.1963861],[-74.065588,40.1963955],[-74.0655635,40.1964235],[-74.0655338,40.1964545],[-74.0655038,40.1964761],[-74.0654971,40.1964809],[-74.0654945,40.1964818],[-74.0654705,40.1964901],[-74.0654258,40.1964977],[-74.0653973,40.1965054],[-74.0653627,40.1965193],[-74.0653487,40.1965307],[-74.0653361,40.1965473],[-74.0653012,40.1966033],[-74.0652684,40.1966514],[-74.0652403,40.1966841],[-74.0652089,40.1967291],[-74.0651741,40.1967819],[-74.0651392,40.1968317],[-74.0651345,40.1968361],[-74.0651295,40.1968407],[-74.0651127,40.1968519],[-74.0650844,40.1968597],[-74.0650537,40.1968656],[-74.0650069,40.1968686],[-74.0649595,40.1968657],[-74.0649196,40.1968589],[-74.0648679,40.1968462],[-74.0648415,40.1968337],[-74.0648132,40.196818],[-74.0647463,40.1967944],[-74.0647016,40.1967864],[-74.0646488,40.19678],[-74.0645838,40.1967766],[-74.0645168,40.1967732],[-74.0644335,40.1967683],[-74.0643299,40.1967648],[-74.0642954,40.1967631],[-74.064271,40.1967614],[-74.0642569,40.1967583],[-74.0642467,40.1967535],[-74.0642204,40.1967347],[-74.0641799,40.196705],[-74.0641263,40.1966721],[-74.064104,40.1966564],[-74.0640716,40.1966407],[-74.0640579,40.1966369],[-74.0640391,40.1966374],[-74.0640025,40.1966389],[-74.0639558,40.1966356],[-74.0639111,40.1966323],[-74.0638583,40.1966259],[-74.0638117,40.1966163],[-74.0637853,40.1966116],[-74.0637143,40.1965973],[-74.0636757,40.1965878],[-74.0636371,40.1965767],[-74.0635906,40.1965563],[-74.0635582,40.1965406],[-74.0635453,40.1965304],[-74.0635339,40.1965171],[-74.0635138,40.1964905],[-74.0634976,40.1964687],[-74.0634754,40.1964483],[-74.0634604,40.1964402],[-74.0634482,40.1964381],[-74.0634349,40.196438],[-74.0634224,40.1964392],[-74.0634124,40.1964443],[-74.0633923,40.1964602],[-74.0633613,40.1964931],[-74.0633327,40.1965226],[-74.0633052,40.1965409],[-74.0632716,40.1965551],[-74.0632003,40.1965782],[-74.0631565,40.1965874],[-74.0630996,40.1966027],[-74.0630775,40.1966103],[-74.0630527,40.1966228],[-74.0630078,40.1966554],[-74.062969,40.1966817],[-74.0629445,40.1967019],[-74.0629159,40.1967267],[-74.0628977,40.1967404],[-74.062881,40.1967506],[-74.0628618,40.1967569],[-74.0628402,40.1967626],[-74.0628202,40.1967644],[-74.0628019,40.196763],[-74.062786,40.1967598],[-74.0627719,40.1967546],[-74.0627612,40.1967489],[-74.0627521,40.1967412],[-74.0627471,40.1967341],[-74.0627422,40.196722],[-74.0627309,40.1966734],[-74.0627133,40.1966231],[-74.0626873,40.1965622],[-74.0626733,40.1965326],[-74.0626552,40.1965045],[-74.0626463,40.1964918],[-74.0626289,40.1964779],[-74.0626157,40.1964687],[-74.062597,40.19646],[-74.0625015,40.1964258],[-74.062489,40.1964229],[-74.0624001,40.1963991],[-74.0623085,40.1963796],[-74.0622112,40.1963664],[-74.0621306,40.196349],[-74.0620807,40.1963297],[-74.0620308,40.1963039],[-74.061981,40.1962696],[-74.0619478,40.1962374],[-74.0619313,40.1962097],[-74.0619232,40.196167],[-74.0619207,40.19612],[-74.0619293,40.1960795],[-74.0619434,40.1960476],[-74.061966,40.1960029],[-74.061994,40.1959646],[-74.0620194,40.1959156],[-74.062053,40.1958731],[-74.062095,40.1958391],[-74.0621509,40.1957988],[-74.0622123,40.1957585],[-74.0622654,40.1957203],[-74.0623129,40.1956885],[-74.0623464,40.1956673],[-74.0623912,40.1956291],[-74.0624444,40.195576],[-74.0625015,40.1955013],[-74.0625348,40.1954279],[-74.0625513,40.1953966],[-74.0625909,40.1953366],[-74.0626453,40.1952692],[-74.0626947,40.1952105],[-74.0627555,40.1951493],[-74.0628681,40.1950511],[-74.0628844,40.1950362],[-74.0629229,40.1950059],[-74.062997,40.1949539],[-74.0630712,40.1948976],[-74.063137,40.1948476],[-74.0631539,40.1948325],[-74.0631651,40.1948221],[-74.0631713,40.1948117],[-74.0631776,40.1947987],[-74.0631823,40.1947764],[-74.0631824,40.1947584],[-74.0631822,40.1947574],[-74.0631793,40.19473],[-74.063174,40.1947143],[-74.0631652,40.1946946],[-74.0631492,40.1946736],[-74.0631265,40.1946516],[-74.0631017,40.1946321],[-74.0630876,40.1946243],[-74.0629529,40.1945629],[-74.0628918,40.194536],[-74.0628123,40.1945044],[-74.0627937,40.194497],[-74.0627768,40.1944924],[-74.0627613,40.1944884],[-74.0627457,40.1944848],[-74.0627321,40.1944828],[-74.0627084,40.1944808],[-74.0626941,40.1944803],[-74.0626833,40.1944799],[-74.0626737,40.1944798],[-74.0626652,40.194479],[-74.062656,40.1944767],[-74.0626439,40.1944723],[-74.0626343,40.1944674],[-74.0626231,40.1944599],[-74.0625848,40.1944355],[-74.0625331,40.1943945],[-74.0625131,40.1943785],[-74.0625015,40.1943677],[-74.0624645,40.1943315],[-74.0623947,40.194275],[-74.0623005,40.1942045],[-74.0622427,40.1941621],[-74.0622181,40.1941497],[-74.0621819,40.1941314],[-74.062127,40.1941125],[-74.0620841,40.1941078],[-74.0620599,40.1941052],[-74.0620018,40.194112],[-74.0619315,40.1941234],[-74.0618642,40.1941442],[-74.0618,40.1941628],[-74.0617357,40.1941929],[-74.0616806,40.1942138],[-74.0616256,40.1942253],[-74.0615583,40.1942368],[-74.0614331,40.194248],[-74.0612956,40.1942522],[-74.0612193,40.1942542],[-74.0610972,40.1942514],[-74.0609659,40.1942462],[-74.0608927,40.1942342],[-74.0608287,40.1942153],[-74.0607952,40.1941988],[-74.060768,40.1941612],[-74.0607651,40.1941307],[-74.0607716,40.1940652],[-74.0607843,40.194009],[-74.060803,40.1939389],[-74.0608095,40.1938733],[-74.0608049,40.1938495],[-74.0607977,40.1938124],[-74.0607704,40.1937865],[-74.0607066,40.1937418],[-74.0606092,40.1936923],[-74.0605905,40.193684],[-74.0605179,40.1936521],[-74.0604356,40.1936237],[-74.0603168,40.1935811],[-74.0602376,40.1935457],[-74.0601555,40.1934915],[-74.06014,40.1934782],[-74.0600978,40.1934421],[-74.0600161,40.1933365],[-74.0598829,40.1931627],[-74.0597678,40.1930171],[-74.059677,40.1928996],[-74.0596012,40.1928081],[-74.0595465,40.192761],[-74.0594675,40.1927162],[-74.0594127,40.1926832],[-74.0593336,40.1926478],[-74.059291,40.1926195],[-74.0592516,40.1925772],[-74.0591909,40.1925091],[-74.0590908,40.1924104],[-74.0589878,40.1922929],[-74.0589424,40.1922272],[-74.0589375,40.1922107],[-74.0589305,40.1921873],[-74.058934,40.1921077],[-74.0589712,40.1920259],[-74.0590389,40.1919419],[-74.0591126,40.1918696],[-74.0592111,40.1917599],[-74.0592481,40.1917015],[-74.0592698,40.1916501],[-74.0592765,40.1915565],[-74.059262,40.191444],[-74.0592353,40.1913198],[-74.0592116,40.1912097],[-74.0591847,40.1911136],[-74.0591456,40.1910291],[-74.0590975,40.1909142],[-74.0590554,40.190804],[-74.058998,40.1907171],[-74.0589465,40.1906561],[-74.0588676,40.1905855],[-74.0587977,40.1905267],[-74.0587187,40.1904726],[-74.0586396,40.1904325],[-74.0585513,40.19039],[-74.0584448,40.1903334],[-74.0583414,40.1902721],[-74.058241,40.1902132],[-74.0581406,40.1901566],[-74.0579065,40.1900058],[-74.0577758,40.189921],[-74.0576998,40.1898716],[-74.0576024,40.1898197],[-74.0574929,40.1897654],[-74.0573955,40.1897159],[-74.0573255,40.1896735],[-74.0572861,40.1896405],[-74.0572436,40.1895936],[-74.0572151,40.1895474],[-74.0572074,40.1895349],[-74.0571713,40.1894457],[-74.057126,40.1893683],[-74.0570839,40.1892675],[-74.057051,40.189162],[-74.0570274,40.1890331],[-74.0570097,40.1889487],[-74.0570195,40.1888504],[-74.0570384,40.1887615],[-74.0570879,40.1886634],[-74.0571402,40.1886051],[-74.0571833,40.1885373],[-74.057202,40.1884765],[-74.0571901,40.1884249],[-74.05716,40.1883686],[-74.0571116,40.1883005],[-74.0570419,40.1882253],[-74.0569599,40.1881501],[-74.0568445,40.188063],[-74.056729,40.1879783],[-74.0566469,40.1879218],[-74.0565526,40.1878769],[-74.0564643,40.1878415],[-74.0563881,40.1878224],[-74.056266,40.187815],[-74.0561683,40.1878146],[-74.0560431,40.1878258],[-74.0559391,40.1878512],[-74.0558198,40.1878882],[-74.0556669,40.187918],[-74.0555447,40.1879386],[-74.0553827,40.1879661],[-74.0552359,40.187996],[-74.0550954,40.1880142],[-74.0549243,40.1880276],[-74.0547991,40.1880318],[-74.0546769,40.1880383],[-74.0545884,40.1880333],[-74.0544542,40.1880211],[-74.0543627,40.1880114],[-74.0542772,40.1879993],[-74.0541706,40.1879731],[-74.0540671,40.1879283],[-74.0539545,40.1878716],[-74.0538388,40.187815],[-74.0537416,40.187749],[-74.0536566,40.1876785],[-74.0535959,40.187615],[-74.0535484,40.1875587],[-74.0535115,40.1875102],[-74.0533875,40.1873416],[-74.0532826,40.1871262],[-74.053245,40.1869518],[-74.0531832,40.1868032],[-74.0530819,40.1865757],[-74.0530052,40.1864716],[-74.0529525,40.1864065],[-74.0528683,40.1863487],[-74.0527767,40.1863076],[-74.0526874,40.1862887],[-74.0525714,40.1862808],[-74.0524336,40.1862877],[-74.0523149,40.1863151],[-74.0521551,40.1863571],[-74.0519723,40.1864037],[-74.0518295,40.1864291],[-74.0517087,40.1864323],[-74.0515999,40.1864245],[-74.0514937,40.1863981],[-74.0513949,40.1863551],[-74.0513011,40.1862917],[-74.0511856,40.1861985],[-74.0510642,40.1861082],[-74.050958,40.1860725],[-74.0508639,40.1860536],[-74.0507335,40.1860346],[-74.0506224,40.1860156],[-74.0505042,40.185991],[-74.0504293,40.1859796],[-74.0503507,40.1859802],[-74.0502564,40.1859873],[-74.0501354,40.1860017],[-74.0500484,40.1860069],[-74.0499034,40.1860008],[-74.0497706,40.1859836],[-74.0496716,40.1859646],[-74.0495461,40.1859326],[-74.0494352,40.1858895],[-74.0493219,40.1858372],[-74.0492206,40.1858034],[-74.0491434,40.1857772],[-74.0490519,40.1857212],[-74.0490104,40.1856759],[-74.048997,40.1856264],[-74.0489975,40.1855523],[-74.0489255,40.1854779],[-74.048805,40.1854106],[-74.0487039,40.1853509],[-74.0486029,40.1852764],[-74.04855,40.1852279],[-74.0484828,40.1851498],[-74.0505722,40.1830052],[-74.0422957,40.1779655],[-74.041538,40.1761332],[-74.0357298,40.1751372],[-74.0299574,40.174698],[-74.0293554,40.1745807],[-74.0293562,40.1745786],[-74.0309151,40.1702599],[-74.0319203,40.1658716],[-74.0320266,40.1654141],[-74.0322574,40.165382],[-74.0322696,40.1653779],[-74.0323575,40.1653483],[-74.0323977,40.1653418],[-74.0324682,40.1653253],[-74.0325229,40.1653079],[-74.0325728,40.1652867],[-74.0326227,40.1652692],[-74.0326798,40.1652517],[-74.0327479,40.1652353],[-74.0328067,40.1652271],[-74.0328468,40.1652171],[-74.032893,40.165207],[-74.0329416,40.1651923],[-74.0329891,40.165172],[-74.0330487,40.1651462],[-74.033098,40.1651278],[-74.0331526,40.1651103],[-74.0332098,40.1650901],[-74.0332681,40.1650792],[-74.0333568,40.1650665],[-74.0334175,40.1650574],[-74.0334564,40.1650474],[-74.0334867,40.1650382],[-74.0335281,40.1650272],[-74.0335985,40.1650107],[-74.033669,40.1649961],[-74.0337304,40.1649796],[-74.0338179,40.1649557],[-74.0338762,40.1649355],[-74.0339516,40.1649153],[-74.0340075,40.1648988],[-74.0340391,40.164884],[-74.0340587,40.1648636],[-74.0340759,40.1648339],[-74.0341103,40.1647596],[-74.0341376,40.1646778],[-74.0341648,40.1646072],[-74.0341824,40.1645086],[-74.0341927,40.1644305],[-74.0341976,40.1644137],[-74.0342147,40.1644027],[-74.034239,40.164399],[-74.0343989,40.1643717],[-74.0345569,40.164391],[-74.0346746,40.164384],[-74.0349196,40.1643906],[-74.0351889,40.1643898],[-74.0353369,40.1643792],[-74.0354122,40.1643702],[-74.0355033,40.1643538],[-74.0356029,40.16433],[-74.0357001,40.1643156],[-74.0358239,40.1642993],[-74.0358992,40.164294],[-74.0359865,40.1642906],[-74.0360521,40.1642853],[-74.0361055,40.1642725],[-74.0361905,40.1642561],[-74.0363556,40.1642474],[-74.0364989,40.1642294],[-74.036596,40.1642149],[-74.0366349,40.1641965],[-74.0366584,40.1641777],[-74.0366741,40.1641482],[-74.0367189,40.1639809],[-74.0367368,40.1638673],[-74.0367411,40.1637748],[-74.0367609,40.1637095],[-74.0368001,40.1636473],[-74.0368275,40.1636058],[-74.0368821,40.1635554],[-74.0369211,40.163514],[-74.0369794,40.1634815],[-74.0370533,40.1634521],[-74.0371387,40.1634227],[-74.0372473,40.1633993],[-74.0374122,40.1633471],[-74.0374803,40.1633213],[-74.0375974,40.1633057],[-74.0377806,40.1633242],[-74.0378135,40.1633391],[-74.0378792,40.1633602],[-74.037918,40.1633574],[-74.0380674,40.1633253],[-74.038137,40.1633375],[-74.0382066,40.1633616],[-74.0382993,40.1634035],[-74.0383966,40.1634366],[-74.038561,40.1635303],[-74.0387447,40.1636241],[-74.0388329,40.1636573],[-74.0431255,40.1626201],[-74.0487559,40.1612605],[-74.0482682,40.160555],[-74.0518382,40.1603684],[-74.0517806,40.1598797],[-74.0502364,40.1551783],[-74.0502688,40.1542808],[-74.0521511,40.1492968]]],[[[-74.0442346,40.1357313],[-74.0443273,40.135576],[-74.0445783,40.1351447],[-74.0446137,40.1350838],[-74.0447345,40.1348645],[-74.044773,40.1347946],[-74.0449279,40.1344813],[-74.0449781,40.1343714],[-74.0450191,40.1342815],[-74.0451929,40.1338701],[-74.0453799,40.1334274],[-74.0455458,40.1330448],[-74.0456187,40.1328766],[-74.0457816,40.1325009],[-74.0460343,40.1318792],[-74.0460421,40.1318602],[-74.0462703,40.1313298],[-74.0463258,40.1312239],[-74.0465274,40.1312758],[-74.0474259,40.1315069],[-74.0475998,40.1315516],[-74.048734,40.131837],[-74.0488892,40.131876],[-74.0498624,40.1321229],[-74.0501569,40.1321969],[-74.0509474,40.1323957],[-74.0516402,40.1325699],[-74.0520569,40.1326747],[-74.0520679,40.1326776],[-74.0520705,40.1326732],[-74.0525299,40.131922],[-74.0533595,40.1305653],[-74.0534804,40.1305735],[-74.0535813,40.1305047],[-74.0538723,40.1306026],[-74.0539037,40.1306163],[-74.0544129,40.1301027],[-74.0545212,40.1299934],[-74.0545212,40.1299934],[-74.0547413,40.1297714],[-74.0548524,40.1296593],[-74.0549613,40.1295495],[-74.0551816,40.1293273],[-74.0556196,40.1288855],[-74.0557107,40.1287936],[-74.0583808,40.1256091],[-74.0601037,40.1232733],[-74.061408,40.1215049],[-74.0614085,40.1215043],[-74.0619892,40.120686],[-74.0640309,40.118022],[-74.0653669,40.1162786],[-74.0653926,40.1160977],[-74.0654421,40.1157488],[-74.0654522,40.1156775],[-74.065458,40.1156369],[-74.0665443,40.1152066],[-74.0679633,40.1146426],[-74.0689183,40.1142701],[-74.0693057,40.1141178],[-74.0694,40.1140807],[-74.0700309,40.1138327],[-74.070552,40.11363],[-74.0707426,40.1135559],[-74.0708733,40.1135012],[-74.0709275,40.113453],[-74.0709639,40.1133842],[-74.0709868,40.1133084],[-74.0712204,40.112602],[-74.0714491,40.1119577],[-74.0715638,40.111589],[-74.0716644,40.1113065],[-74.0718477,40.1107379],[-74.0720309,40.1101728],[-74.0721775,40.1097318],[-74.07226,40.1094733],[-74.0723834,40.1091391],[-74.0724792,40.1089014],[-74.0725837,40.1087259],[-74.0727106,40.1085504],[-74.0729141,40.1083441],[-74.0731671,40.1081243],[-74.0734832,40.1078563],[-74.0739353,40.1074517],[-74.0739938,40.1073994],[-74.074315,40.1070521],[-74.074871,40.106509],[-74.0753368,40.106014],[-74.0754771,40.1058592],[-74.0760382,40.1052196],[-74.0781149,40.1029783],[-74.0784962,40.1025186],[-74.0789042,40.1020339],[-74.0792381,40.1016302],[-74.0793403,40.1015066],[-74.0794757,40.1013468],[-74.0795441,40.1012689],[-74.0811922,40.100455],[-74.0815652,40.1002316],[-74.0816158,40.1002039],[-74.0822572,40.0998536],[-74.0824544,40.0997438],[-74.0835338,40.0991432],[-74.0836783,40.0990756],[-74.0846853,40.098604],[-74.0862857,40.0981087],[-74.0868141,40.0987605],[-74.0880151,40.1000701],[-74.0886812,40.100771],[-74.0896091,40.1017303],[-74.0908701,40.10304],[-74.0921309,40.1043865],[-74.0924256,40.1048319],[-74.0925699,40.1050499],[-74.0931862,40.1060816],[-74.0936098,40.1073148],[-74.0937935,40.1086391],[-74.0939505,40.1104229],[-74.0942254,40.1125013],[-74.0944431,40.1137384],[-74.0944455,40.1137522],[-74.0946911,40.1147274],[-74.0949969,40.1156477],[-74.0955621,40.1172491],[-74.0962226,40.1189427],[-74.0966954,40.1199738],[-74.0969071,40.120618],[-74.0970226,40.1213354],[-74.0970363,40.1220329],[-74.097041,40.1222731],[-74.0968937,40.1228976],[-74.0965315,40.1233927],[-74.0964389,40.1235804],[-74.0963759,40.1237469],[-74.0962943,40.1239624],[-74.0962817,40.1240777],[-74.096262,40.1242589],[-74.0963112,40.1245323],[-74.0964418,40.1247981],[-74.0964586,40.1248252],[-74.0604273,40.1380859],[-74.0442346,40.1357313]]]]}}
